{
"type": "FeatureCollection",
"name": "kelapa_gading",
"crs": { "type": "name", "properties": { "name": "urn:ogc:def:crs:OGC:1.3:CRS84" } },
"features": [
{ "type": "Feature", "properties": { "OBJECTID": 14, "NAMOBJ": null, "FCODE": "BA03080040", "REMARK": null, "METADATA": null, "SRS_ID": null, "KDBBPS": null, "KDCBPS": null, "KDCPUM": "317206", "KDEBPS": null, "KDEPUM": null, "KDPBPS": null, "KDPKAB": "3172", "KDPPUM": null, "LUASWH": null, "TIPADM": null, "WADMKC": "KELAPA GADING", "WADMKD": null, "WADMKK": "JAKARTA UTARA", "WADMPR": null, "WIADKC": null, "WIADKK": null, "WIADPR": null, "WIADKD": null, "SHAPE_Length": 0.16150501645861201, "SHAPE_Area": 0.0013124352330129833 }, "geometry": { "type": "MultiPolygon", "coordinates": [ [ [ [ 106.895569342000044, -6.137607583999966, 0.0 ], [ 106.89764983200007, -6.138123977999953, 0.0 ], [ 106.89946406100006, -6.138574927999969, 0.0 ], [ 106.900143366000066, -6.138745006999955, 0.0 ], [ 106.900149354000064, -6.138751726999942, 0.0 ], [ 106.900150550000035, -6.138746818999948, 0.0 ], [ 106.900226709000037, -6.138766028999953, 0.0 ], [ 106.900255821000087, -6.138773370999957, 0.0 ], [ 106.900310054000045, -6.138787049999962, 0.0 ], [ 106.900393398000062, -6.138808070999971, 0.0 ], [ 106.90047674200008, -6.13882909199998, 0.0 ], [ 106.900560085000052, -6.138850113999979, 0.0 ], [ 106.90064342900007, -6.138871133999942, 0.0 ], [ 106.900726774000077, -6.138892154999951, 0.0 ], [ 106.900810118000038, -6.13891317599996, 0.0 ], [ 106.900893462000056, -6.138934197999959, 0.0 ], [ 106.900976806000074, -6.138955218999968, 0.0 ], [ 106.901060150000035, -6.138976238999931, 0.0 ], [ 106.901143494000053, -6.13899725999994, 0.0 ], [ 106.901226838000071, -6.139018281999938, 0.0 ], [ 106.901310182000088, -6.139039301999958, 0.0 ], [ 106.901394631000073, -6.139059216999954, 0.0 ], [ 106.901479080000058, -6.139079131999949, 0.0 ], [ 106.901563528000054, -6.139099044999966, 0.0 ], [ 106.901647977000039, -6.139118959999962, 0.0 ], [ 106.901732426000081, -6.139138874999958, 0.0 ], [ 106.901816875000065, -6.139158788999964, 0.0 ], [ 106.901901323000061, -6.13917870399996, 0.0 ], [ 106.901985773000035, -6.139198616999977, 0.0 ], [ 106.902070221000088, -6.139218531999973, 0.0 ], [ 106.902154670000073, -6.139238445999979, 0.0 ], [ 106.902239119000058, -6.139258360999975, 0.0 ], [ 106.902323568000043, -6.139278273999935, 0.0 ], [ 106.902408016000038, -6.139298188999931, 0.0 ], [ 106.902492466000069, -6.139318102999937, 0.0 ], [ 106.902576914000065, -6.139338017999933, 0.0 ], [ 106.90266136300005, -6.139357931999939, 0.0 ], [ 106.902745812000035, -6.139377845999945, 0.0 ], [ 106.902830261000076, -6.139397759999952, 0.0 ], [ 106.902914709000072, -6.139417673999958, 0.0 ], [ 106.902991399000086, -6.139436769999975, 0.0 ], [ 106.903068089000044, -6.139455865999935, 0.0 ], [ 106.903144779000058, -6.139474960999962, 0.0 ], [ 106.903221469000073, -6.139494056999979, 0.0 ], [ 106.903298159000087, -6.13951315199995, 0.0 ], [ 106.903374849000045, -6.139532247999966, 0.0 ], [ 106.903376678000086, -6.139532702999929, 0.0 ], [ 106.903451539000059, -6.139551343999926, 0.0 ], [ 106.903531997000073, -6.139569578999954, 0.0 ], [ 106.903612455000086, -6.139587812999935, 0.0 ], [ 106.903692914000032, -6.139606047999962, 0.0 ], [ 106.903773372000046, -6.139624281999943, 0.0 ], [ 106.903853831000049, -6.13964251699997, 0.0 ], [ 106.903934288000073, -6.139660750999951, 0.0 ], [ 106.904014747000076, -6.139678985999979, 0.0 ], [ 106.904095205000033, -6.13969721999996, 0.0 ], [ 106.904175664000036, -6.139715453999941, 0.0 ], [ 106.90425663700006, -6.139750789999937, 0.0 ], [ 106.904329475000054, -6.139800811999976, 0.0 ], [ 106.904370054000083, -6.139841931999968, 0.0 ], [ 106.904391550000071, -6.139863714999933, 0.0 ], [ 106.904440624000074, -6.13993722999993, 0.0 ], [ 106.904456550000077, -6.140015851999976, 0.0 ], [ 106.90447247600008, -6.140094474999955, 0.0 ], [ 106.904488402000084, -6.140173096999945, 0.0 ], [ 106.904504328000087, -6.140251719999981, 0.0 ], [ 106.90452001400007, -6.140297388999954, 0.0 ], [ 106.904535700000054, -6.140343057999928, 0.0 ], [ 106.904537921000042, -6.140394734999973, 0.0 ], [ 106.904540142000087, -6.14044641299995, 0.0 ], [ 106.904558356000052, -6.140506759999937, 0.0 ], [ 106.904576570000074, -6.140567105999935, 0.0 ], [ 106.904582865000066, -6.140613137999935, 0.0 ], [ 106.904589161000047, -6.140659171999971, 0.0 ], [ 106.90461563000008, -6.140730927999925, 0.0 ], [ 106.904642099000057, -6.140802684999926, 0.0 ], [ 106.904655466000065, -6.140861324999946, 0.0 ], [ 106.904659127000059, -6.140877388999968, 0.0 ], [ 106.904668831000038, -6.140919965999956, 0.0 ], [ 106.904689935000079, -6.140978618999952, 0.0 ], [ 106.904711038000073, -6.141037271999949, 0.0 ], [ 106.904744123000057, -6.141113317999952, 0.0 ], [ 106.904777210000077, -6.141189363999956, 0.0 ], [ 106.904810296000051, -6.141265408999971, 0.0 ], [ 106.90484338300007, -6.141341454999974, 0.0 ], [ 106.904876468000055, -6.141417500999978, 0.0 ], [ 106.904890843000032, -6.141450539999937, 0.0 ], [ 106.904909555000074, -6.141493545999936, 0.0 ], [ 106.904942641000048, -6.141569591999939, 0.0 ], [ 106.904975728000068, -6.141645637999943, 0.0 ], [ 106.905008814000041, -6.141721682999957, 0.0 ], [ 106.905045832000042, -6.141778839999972, 0.0 ], [ 106.905082851000088, -6.14183599699993, 0.0 ], [ 106.905102182000064, -6.141865843999938, 0.0 ], [ 106.905119869000089, -6.141893153999945, 0.0 ], [ 106.905156888000079, -6.14195031099996, 0.0 ], [ 106.905202365000036, -6.142017888999931, 0.0 ], [ 106.905247842000051, -6.142085467999948, 0.0 ], [ 106.905263460000072, -6.142169149999972, 0.0 ], [ 106.905304777000083, -6.142243075999943, 0.0 ], [ 106.905346093000048, -6.14231700199997, 0.0 ], [ 106.905375414000048, -6.142378246999954, 0.0 ], [ 106.905395553000062, -6.142420310999967, 0.0 ], [ 106.905404736000037, -6.142439490999948, 0.0 ], [ 106.905434058000083, -6.142500734999942, 0.0 ], [ 106.905463379000082, -6.142561978999936, 0.0 ], [ 106.905510547000063, -6.142623293999975, 0.0 ], [ 106.905516306000038, -6.142630777999955, 0.0 ], [ 106.905525603000058, -6.14264286599996, 0.0 ], [ 106.905557715000043, -6.142684609999947, 0.0 ], [ 106.90560488400007, -6.142745924999929, 0.0 ], [ 106.90565588000004, -6.142809101999944, 0.0 ], [ 106.905706877000057, -6.142872280999939, 0.0 ], [ 106.905757872000038, -6.142935457999954, 0.0 ], [ 106.905790638000042, -6.142996213999936, 0.0 ], [ 106.905823402000067, -6.143056970999965, 0.0 ], [ 106.905826294000065, -6.143061615999954, 0.0 ], [ 106.905868986000087, -6.143130163999956, 0.0 ], [ 106.905878747000088, -6.143145838999942, 0.0 ], [ 106.905910536000079, -6.143196881999927, 0.0 ], [ 106.905914568000071, -6.143203355999958, 0.0 ], [ 106.905960152000034, -6.14327654899995, 0.0 ], [ 106.905995836000045, -6.143315503999929, 0.0 ], [ 106.906031520000056, -6.143354458999966, 0.0 ], [ 106.906080256000052, -6.143404251999925, 0.0 ], [ 106.906128992000049, -6.143454044999942, 0.0 ], [ 106.90617887500008, -6.143493974999956, 0.0 ], [ 106.906228758000054, -6.14353390399998, 0.0 ], [ 106.90625355700007, -6.143553754999971, 0.0 ], [ 106.906278641000085, -6.143573832999948, 0.0 ], [ 106.906304885000054, -6.143594839999935, 0.0 ], [ 106.906315524000036, -6.143603355999971, 0.0 ], [ 106.906323759000088, -6.143609946999959, 0.0 ], [ 106.906361975000038, -6.143584053999973, 0.0 ], [ 106.906390621000071, -6.143564645999959, 0.0 ], [ 106.906460099000071, -6.143523475999928, 0.0 ], [ 106.906531938000057, -6.143486586999927, 0.0 ], [ 106.906605874000036, -6.14345411599993, 0.0 ], [ 106.906681638000066, -6.143426179999949, 0.0 ], [ 106.906717001000061, -6.143415022999932, 0.0 ], [ 106.906756039000072, -6.143402705999961, 0.0 ], [ 106.906831028000056, -6.143381185999942, 0.0 ], [ 106.906906552000066, -6.143361633999973, 0.0 ], [ 106.906982561000063, -6.143344061999926, 0.0 ], [ 106.90704413800006, -6.143331511999975, 0.0 ], [ 106.90705900200004, -6.143328482999948, 0.0 ], [ 106.907135824000079, -6.143314907999979, 0.0 ], [ 106.907212974000061, -6.143303345999925, 0.0 ], [ 106.907284486000037, -6.143293008999933, 0.0 ], [ 106.907353853000075, -6.143272770999943, 0.0 ], [ 106.90741971500006, -6.143243028999962, 0.0 ], [ 106.907480776000057, -6.143204365999964, 0.0 ], [ 106.907532007000043, -6.143164995999939, 0.0 ], [ 106.907580898000049, -6.143122749999975, 0.0 ], [ 106.907627289000061, -6.143077768999945, 0.0 ], [ 106.907691927000087, -6.143030934999956, 0.0 ], [ 106.907762411000078, -6.142993489999981, 0.0 ], [ 106.907837389000065, -6.142966151999929, 0.0 ], [ 106.907915421000041, -6.142949445999932, 0.0 ], [ 106.907995010000036, -6.142943690999971, 0.0 ], [ 106.90807463200008, -6.142948997999952, 0.0 ], [ 106.908112862000053, -6.142956958999946, 0.0 ], [ 106.908180213000037, -6.14296496399993, 0.0 ], [ 106.908230073000084, -6.142964416999973, 0.0 ], [ 106.908307204000039, -6.142959004999966, 0.0 ], [ 106.908383882000066, -6.142949046999945, 0.0 ], [ 106.908459840000035, -6.142934579999974, 0.0 ], [ 106.908534812000084, -6.142915652999932, 0.0 ], [ 106.908608538000067, -6.142892331999974, 0.0 ], [ 106.908670290000089, -6.142850654999961, 0.0 ], [ 106.908732042000054, -6.142808977999948, 0.0 ], [ 106.908788522000066, -6.142765389999965, 0.0 ], [ 106.908845002000078, -6.142721801999926, 0.0 ], [ 106.908901482000033, -6.142678214999933, 0.0 ], [ 106.908957962000045, -6.14263462599996, 0.0 ], [ 106.909017606000077, -6.142587956999932, 0.0 ], [ 106.909077249000063, -6.142541286999972, 0.0 ], [ 106.909136893000039, -6.142494617999944, 0.0 ], [ 106.909206509000057, -6.142448035999962, 0.0 ], [ 106.909260185000051, -6.142421377999938, 0.0 ], [ 106.909281522000072, -6.142410780999967, 0.0 ], [ 106.909360690000085, -6.142383466999945, 0.0 ], [ 106.909442707000039, -6.142366546999938, 0.0 ], [ 106.909463148000043, -6.142365325999947, 0.0 ], [ 106.909526584000048, -6.142361537999932, 0.0 ], [ 106.909610047000058, -6.14235182699997, 0.0 ], [ 106.909692834000055, -6.142337444999953, 0.0 ], [ 106.909766519000073, -6.14232033299993, 0.0 ], [ 106.909776020000038, -6.142318020999937, 0.0 ], [ 106.909776528000066, -6.142317896999941, 0.0 ], [ 106.909855341000082, -6.142294861999972, 0.0 ], [ 106.909874337000076, -6.142284545999928, 0.0 ], [ 106.909941743000047, -6.142247943999962, 0.0 ], [ 106.910009148000086, -6.142211341999939, 0.0 ], [ 106.910073391000083, -6.142185384999948, 0.0 ], [ 106.910114953000061, -6.142168591999962, 0.0 ], [ 106.910124631000087, -6.14216468199993, 0.0 ], [ 106.910125201000085, -6.142164485999956, 0.0 ], [ 106.910146207000082, -6.142157312999927, 0.0 ], [ 106.910151446000043, -6.142153846999975, 0.0 ], [ 106.910201876000087, -6.142133470999966, 0.0 ], [ 106.910266119000084, -6.142107514999964, 0.0 ], [ 106.910344499000075, -6.142082031999962, 0.0 ], [ 106.910425028000077, -6.142064502999972, 0.0 ], [ 106.910513407000053, -6.142048699999975, 0.0 ], [ 106.910601787000076, -6.142032895999932, 0.0 ], [ 106.910690166000052, -6.142017091999946, 0.0 ], [ 106.910778545000085, -6.14200128799996, 0.0 ], [ 106.91086692500005, -6.141985483999974, 0.0 ], [ 106.910955304000083, -6.141969679999931, 0.0 ], [ 106.911041594000039, -6.141945126999929, 0.0 ], [ 106.911121947000083, -6.141905205999933, 0.0 ], [ 106.911196109000059, -6.141860978999944, 0.0 ], [ 106.911270269000056, -6.141816751999954, 0.0 ], [ 106.911344430000042, -6.141772524999965, 0.0 ], [ 106.911418591000086, -6.141728296999929, 0.0 ], [ 106.911449362000042, -6.141709945999935, 0.0 ], [ 106.911492752000072, -6.14168406999994, 0.0 ], [ 106.911566913000058, -6.14163984299995, 0.0 ], [ 106.91160764600005, -6.141606957999954, 0.0 ], [ 106.911648379000042, -6.141574072999958, 0.0 ], [ 106.911668380000037, -6.141546610999967, 0.0 ], [ 106.911678493000068, -6.141532724999934, 0.0 ], [ 106.911695429000076, -6.141509471999939, 0.0 ], [ 106.911751839000033, -6.141459918999942, 0.0 ], [ 106.911825091000082, -6.141428576999942, 0.0 ], [ 106.911849461000088, -6.141418150999925, 0.0 ], [ 106.911898342000086, -6.141397236999978, 0.0 ], [ 106.911971594000079, -6.141365894999979, 0.0 ], [ 106.912032317000069, -6.141331565999963, 0.0 ], [ 106.912046857000064, -6.141323345999979, 0.0 ], [ 106.91211441300004, -6.141269370999964, 0.0 ], [ 106.912172545000033, -6.141205339999942, 0.0 ], [ 106.912219776000086, -6.141132880999976, 0.0 ], [ 106.912254909000069, -6.141053831999955, 0.0 ], [ 106.912277052000036, -6.140970201999949, 0.0 ], [ 106.912290772000063, -6.140910660999964, 0.0 ], [ 106.912304493000079, -6.140851118999933, 0.0 ], [ 106.912318213000049, -6.140791576999959, 0.0 ], [ 106.912340741000037, -6.140715127999954, 0.0 ], [ 106.912363269000082, -6.140638679999938, 0.0 ], [ 106.912397576000046, -6.140569884999934, 0.0 ], [ 106.912431434000041, -6.14052660699997, 0.0 ], [ 106.912444937000032, -6.140509347999966, 0.0 ], [ 106.912503437000055, -6.14045951199995, 0.0 ], [ 106.912539505000041, -6.14043960999993, 0.0 ], [ 106.912570712000047, -6.140422391999948, 0.0 ], [ 106.912638352000045, -6.140382809999949, 0.0 ], [ 106.912691486000085, -6.140351880999958, 0.0 ], [ 106.91274461900008, -6.140320950999978, 0.0 ], [ 106.912797753000063, -6.140290020999942, 0.0 ], [ 106.912861748000068, -6.140240159999962, 0.0 ], [ 106.91290544800006, -6.140181112999926, 0.0 ], [ 106.912937421000038, -6.140114962999974, 0.0 ], [ 106.912956551000036, -6.140044018999959, 0.0 ], [ 106.912964188000046, -6.139982184999951, 0.0 ], [ 106.912984080000058, -6.139900798999975, 0.0 ], [ 106.912994026000035, -6.139860105999958, 0.0 ], [ 106.91300397200007, -6.139819412999941, 0.0 ], [ 106.913038659000051, -6.13973606899998, 0.0 ], [ 106.913073346000033, -6.139652724999962, 0.0 ], [ 106.913102862000073, -6.13959243599993, 0.0 ], [ 106.913132378000057, -6.139532144999976, 0.0 ], [ 106.913156511000068, -6.13950071499994, 0.0 ], [ 106.91318633800006, -6.139480454999955, 0.0 ], [ 106.913230605000081, -6.139450386999954, 0.0 ], [ 106.913305425000033, -6.139417354999978, 0.0 ], [ 106.913312534000056, -6.139414216999967, 0.0 ], [ 106.913399625000068, -6.139393383999959, 0.0 ], [ 106.913447438000048, -6.139365032999933, 0.0 ], [ 106.913481177000051, -6.139320832999942, 0.0 ], [ 106.913485425000033, -6.139310803999933, 0.0 ], [ 106.913512107000088, -6.139238207999938, 0.0 ], [ 106.913538790000075, -6.139165611999942, 0.0 ], [ 106.913565472000073, -6.139093015999947, 0.0 ], [ 106.913594801000045, -6.139016666999964, 0.0 ], [ 106.913624130000073, -6.138940317999925, 0.0 ], [ 106.913643036000053, -6.138861587999941, 0.0 ], [ 106.913661943000079, -6.138782857999956, 0.0 ], [ 106.913680849000059, -6.138704126999926, 0.0 ], [ 106.913697268000078, -6.138642969999978, 0.0 ], [ 106.913713688000087, -6.138581812999973, 0.0 ], [ 106.913741648000041, -6.13851442899994, 0.0 ], [ 106.913769607000063, -6.138447043999975, 0.0 ], [ 106.913797567000074, -6.138379659999941, 0.0 ], [ 106.913835449000032, -6.138298988999964, 0.0 ], [ 106.913879853000083, -6.138269528999956, 0.0 ], [ 106.913886007000087, -6.138262755999961, 0.0 ], [ 106.91392643000006, -6.138218266999957, 0.0 ], [ 106.913956461000055, -6.138159861999952, 0.0 ], [ 106.913986492000049, -6.138101456999948, 0.0 ], [ 106.914007970000057, -6.138067790999969, 0.0 ], [ 106.914034150000077, -6.138038063999943, 0.0 ], [ 106.914048282000067, -6.138024582999947, 0.0 ], [ 106.914067420000038, -6.138009026999953, 0.0 ], [ 106.914099190000059, -6.137987232999933, 0.0 ], [ 106.914147329000059, -6.13797286099998, 0.0 ], [ 106.914231529000062, -6.137962114999937, 0.0 ], [ 106.914294994000045, -6.137959974999944, 0.0 ], [ 106.914301261000048, -6.137959762999969, 0.0 ], [ 106.91434660200008, -6.137954424999975, 0.0 ], [ 106.91435049100005, -6.137918897999953, 0.0 ], [ 106.914351128000078, -6.137913075999961, 0.0 ], [ 106.914351445000079, -6.137910291999958, 0.0 ], [ 106.914360544000033, -6.137830497999971, 0.0 ], [ 106.914369959000055, -6.137747918999935, 0.0 ], [ 106.914379375000067, -6.137665341999934, 0.0 ], [ 106.914388791000079, -6.137582763999944, 0.0 ], [ 106.914398207000033, -6.137500185999954, 0.0 ], [ 106.914403514000071, -6.137468938999973, 0.0 ], [ 106.914404667000042, -6.137462153999934, 0.0 ], [ 106.914418927000042, -6.137411211999961, 0.0 ], [ 106.91441902400004, -6.137410864999936, 0.0 ], [ 106.914453429000048, -6.13736844999994, 0.0 ], [ 106.914507800000081, -6.137363094999955, 0.0 ], [ 106.914508285000068, -6.137363046999951, 0.0 ], [ 106.914787165000064, -6.137445965999973, 0.0 ], [ 106.914799375000086, -6.137449595999954, 0.0 ], [ 106.914855146000036, -6.13746219199993, 0.0 ], [ 106.914909099000056, -6.137481117999926, 0.0 ], [ 106.914960523000047, -6.13750612399997, 0.0 ], [ 106.915008736000061, -6.137536878999981, 0.0 ], [ 106.915048315000035, -6.13756411199995, 0.0 ], [ 106.915090769000074, -6.137586591999934, 0.0 ], [ 106.915135532000079, -6.137604017999934, 0.0 ], [ 106.915182004000087, -6.137616156999968, 0.0 ], [ 106.915229143000033, -6.137622786999941, 0.0 ], [ 106.91522956600005, -6.137622845999942, 0.0 ], [ 106.915307971000061, -6.13760046699997, 0.0 ], [ 106.915310399000077, -6.137599577999936, 0.0 ], [ 106.915384540000048, -6.137572428999931, 0.0 ], [ 106.915458863000083, -6.137538881999944, 0.0 ], [ 106.91553054600007, -6.137500002999957, 0.0 ], [ 106.91558309900006, -6.137472163999973, 0.0 ], [ 106.915637826000079, -6.137448897999946, 0.0 ], [ 106.915656399000056, -6.137442808999936, 0.0 ], [ 106.915694332000044, -6.137430373999962, 0.0 ], [ 106.915752207000082, -6.13741672499998, 0.0 ], [ 106.915810813000064, -6.137408084999947, 0.0 ], [ 106.915811031000032, -6.137408051999955, 0.0 ], [ 106.91587478100007, -6.13741258999994, 0.0 ], [ 106.91593804300004, -6.137411458999964, 0.0 ], [ 106.915938681000057, -6.137411451999981, 0.0 ], [ 106.916002227000035, -6.13740463399995, 0.0 ], [ 106.916064917000085, -6.137392192999926, 0.0 ], [ 106.916171642000052, -6.137370311999973, 0.0 ], [ 106.916279197000051, -6.137352972999963, 0.0 ], [ 106.916387022000038, -6.137340246999941, 0.0 ], [ 106.916387388000032, -6.137340203999941, 0.0 ], [ 106.916438908000089, -6.137347982999927, 0.0 ], [ 106.916489245000037, -6.137361445999943, 0.0 ], [ 106.916498692000062, -6.137365139999929, 0.0 ], [ 106.916537776000041, -6.137380424999947, 0.0 ], [ 106.916583897000066, -6.137404685999968, 0.0 ], [ 106.916627040000037, -6.137433926999961, 0.0 ], [ 106.916703835000078, -6.137500000999978, 0.0 ], [ 106.916742247000059, -6.137533291999944, 0.0 ], [ 106.91675312700005, -6.137542189999976, 0.0 ], [ 106.916852371000061, -6.13762335399997, 0.0 ], [ 106.91686685600007, -6.137635198999931, 0.0 ], [ 106.916910355000084, -6.137663663999945, 0.0 ], [ 106.916929120000077, -6.137674612999945, 0.0 ], [ 106.916901772000074, -6.137717079999959, 0.0 ], [ 106.916897234000032, -6.137724125999966, 0.0 ], [ 106.916888056000062, -6.137738377999938, 0.0 ], [ 106.916866502000062, -6.137811572999965, 0.0 ], [ 106.916851777000034, -6.137886445999925, 0.0 ], [ 106.916844009000044, -6.137962357999925, 0.0 ], [ 106.916843262000043, -6.138038662999975, 0.0 ], [ 106.91684954200008, -6.138114712999936, 0.0 ], [ 106.916853583000034, -6.138167813999928, 0.0 ], [ 106.916858839000042, -6.13824096899998, 0.0 ], [ 106.916862739000067, -6.138296267999976, 0.0 ], [ 106.916867039000067, -6.138339228999939, 0.0 ], [ 106.916866910000067, -6.138356336999948, 0.0 ], [ 106.916869515000087, -6.13839429899997, 0.0 ], [ 106.916873636000048, -6.138468931999967, 0.0 ], [ 106.916876491000039, -6.138531557999954, 0.0 ], [ 106.916876917000081, -6.138603184999965, 0.0 ], [ 106.916876173000048, -6.138648899999964, 0.0 ], [ 106.916875427000036, -6.138694615999952, 0.0 ], [ 106.916873341000041, -6.138760267999942, 0.0 ], [ 106.916872749000049, -6.138811244999943, 0.0 ], [ 106.916870845000062, -6.138873208999939, 0.0 ], [ 106.916868941000075, -6.138935173999926, 0.0 ], [ 106.916864518000068, -6.13898857099997, 0.0 ], [ 106.916860094000072, -6.139041966999969, 0.0 ], [ 106.916851862000044, -6.139107255999932, 0.0 ], [ 106.916845529000057, -6.139146687999926, 0.0 ], [ 106.916840093000076, -6.139180536999959, 0.0 ], [ 106.916830333000064, -6.139231294999945, 0.0 ], [ 106.916810459000033, -6.139318169999967, 0.0 ], [ 106.916794799000058, -6.139376722999941, 0.0 ], [ 106.916778126000054, -6.139432643999953, 0.0 ], [ 106.916761490000056, -6.139483118999976, 0.0 ], [ 106.916738163000048, -6.139541377999933, 0.0 ], [ 106.916715970000041, -6.139591073999952, 0.0 ], [ 106.91668291700006, -6.139657220999936, 0.0 ], [ 106.916668389000051, -6.139684004999935, 0.0 ], [ 106.916663032000088, -6.139693487999978, 0.0 ], [ 106.91663300600004, -6.139734400999941, 0.0 ], [ 106.91660298100004, -6.139775313999962, 0.0 ], [ 106.916592931000082, -6.139796702999945, 0.0 ], [ 106.916567991000079, -6.139866575999974, 0.0 ], [ 106.916551893000076, -6.139939002999938, 0.0 ], [ 106.916544883000086, -6.140012866999939, 0.0 ], [ 106.916544446000046, -6.140066840999964, 0.0 ], [ 106.916543017000038, -6.140119493999975, 0.0 ], [ 106.916541589000076, -6.140172147999976, 0.0 ], [ 106.916536739000037, -6.14024234599998, 0.0 ], [ 106.916531891000034, -6.140312543999926, 0.0 ], [ 106.916527042000041, -6.140382742999975, 0.0 ], [ 106.916517980000037, -6.140454276999947, 0.0 ], [ 106.91650891900008, -6.140525810999975, 0.0 ], [ 106.916499857000076, -6.140597345999936, 0.0 ], [ 106.916485411000053, -6.140680171999975, 0.0 ], [ 106.916465169000048, -6.14073947199995, 0.0 ], [ 106.916441811000084, -6.14079761499994, 0.0 ], [ 106.916409534000081, -6.140873781999971, 0.0 ], [ 106.916377258000068, -6.140949949999936, 0.0 ], [ 106.916344982000055, -6.141026116999967, 0.0 ], [ 106.916316734000077, -6.141097908999939, 0.0 ], [ 106.916288486000042, -6.141169700999967, 0.0 ], [ 106.916268311000067, -6.141238313999963, 0.0 ], [ 106.916265567000039, -6.141255577999971, 0.0 ], [ 106.916257082000072, -6.141308948999949, 0.0 ], [ 106.916242824000051, -6.141371869999944, 0.0 ], [ 106.916222927000035, -6.141433237999934, 0.0 ], [ 106.916216046000045, -6.141472805999967, 0.0 ], [ 106.916217251000035, -6.141527224999948, 0.0 ], [ 106.916218456000081, -6.141581643999928, 0.0 ], [ 106.916220167000063, -6.141659341999969, 0.0 ], [ 106.91622188000008, -6.141737039999953, 0.0 ], [ 106.916223591000062, -6.141814739999973, 0.0 ], [ 106.916225303000033, -6.141892437999957, 0.0 ], [ 106.916226205000044, -6.141967049999948, 0.0 ], [ 106.916227107000054, -6.142041660999951, 0.0 ], [ 106.916228008000076, -6.142116272999942, 0.0 ], [ 106.916224013000033, -6.14216493899994, 0.0 ], [ 106.916220016000068, -6.142213606999974, 0.0 ], [ 106.916202680000083, -6.142274545999953, 0.0 ], [ 106.916185342000063, -6.142335485999979, 0.0 ], [ 106.916156749000038, -6.142403035999962, 0.0 ], [ 106.91612815700006, -6.142470586999934, 0.0 ], [ 106.916088398000056, -6.142549349999967, 0.0 ], [ 106.916048640000042, -6.14262811499998, 0.0 ], [ 106.916008881000039, -6.142706878999945, 0.0 ], [ 106.915984828000035, -6.142758800999957, 0.0 ], [ 106.915960774000041, -6.142810722999968, 0.0 ], [ 106.915933567000081, -6.142885885999931, 0.0 ], [ 106.915910392000058, -6.142967790999933, 0.0 ], [ 106.915887215000055, -6.143049696999981, 0.0 ], [ 106.91587476400008, -6.143122939999955, 0.0 ], [ 106.915862312000058, -6.14319618299993, 0.0 ], [ 106.915852867000069, -6.14326045699994, 0.0 ], [ 106.915843423000069, -6.14332473099995, 0.0 ], [ 106.91583397800008, -6.14338900499996, 0.0 ], [ 106.915826213000059, -6.143449317999966, 0.0 ], [ 106.915818448000039, -6.143509630999972, 0.0 ], [ 106.915810683000075, -6.143569942999932, 0.0 ], [ 106.91580526100006, -6.14362256499993, 0.0 ], [ 106.91579984100008, -6.143675186999928, 0.0 ], [ 106.915789190000055, -6.143728094999972, 0.0 ], [ 106.915778539000087, -6.143781003999948, 0.0 ], [ 106.915776778000065, -6.143787544999952, 0.0 ], [ 106.915757288000066, -6.143859916999929, 0.0 ], [ 106.915736036000055, -6.143938827999932, 0.0 ], [ 106.915708223000081, -6.144013664999932, 0.0 ], [ 106.915680409000061, -6.144088502999978, 0.0 ], [ 106.915655898000068, -6.144151244999932, 0.0 ], [ 106.91563138500004, -6.144213986999944, 0.0 ], [ 106.915606874000048, -6.144276729999945, 0.0 ], [ 106.915583128000037, -6.144341572999963, 0.0 ], [ 106.915559384000062, -6.144406416999971, 0.0 ], [ 106.915535639000041, -6.144471260999978, 0.0 ], [ 106.915510916000073, -6.144531792999942, 0.0 ], [ 106.91549406300004, -6.144589362999966, 0.0 ], [ 106.915477210000063, -6.144646933999979, 0.0 ], [ 106.915463052000064, -6.144728473999976, 0.0 ], [ 106.915459531000067, -6.144781895999927, 0.0 ], [ 106.915456009000081, -6.144835317999934, 0.0 ], [ 106.915458539000042, -6.144885676999934, 0.0 ], [ 106.91546106800007, -6.144936035999933, 0.0 ], [ 106.915468312000087, -6.144981597999958, 0.0 ], [ 106.915475556000047, -6.145027157999948, 0.0 ], [ 106.915492676000042, -6.145086980999963, 0.0 ], [ 106.915509795000048, -6.145146803999978, 0.0 ], [ 106.915538664000053, -6.145210019999979, 0.0 ], [ 106.915567533000058, -6.145273234999934, 0.0 ], [ 106.915593080000065, -6.145322737999948, 0.0 ], [ 106.915614667000057, -6.145389117999969, 0.0 ], [ 106.915636253000059, -6.145455497999933, 0.0 ], [ 106.915660084000081, -6.145517118999976, 0.0 ], [ 106.915683915000045, -6.145578740999952, 0.0 ], [ 106.915707746000066, -6.145640361999938, 0.0 ], [ 106.915741800000035, -6.14570832499993, 0.0 ], [ 106.915775855000049, -6.145776285999943, 0.0 ], [ 106.915809909000075, -6.145844248999936, 0.0 ], [ 106.915845948000083, -6.145901575999972, 0.0 ], [ 106.915881987000034, -6.14595890399994, 0.0 ], [ 106.915918025000053, -6.146016230999976, 0.0 ], [ 106.915964412000051, -6.146076339999979, 0.0 ], [ 106.916010798000059, -6.146136449999972, 0.0 ], [ 106.916057185000057, -6.146196559999964, 0.0 ], [ 106.916103627000041, -6.146244870999965, 0.0 ], [ 106.916150068000036, -6.146293181999965, 0.0 ], [ 106.916196510000077, -6.146341492999966, 0.0 ], [ 106.916227027000048, -6.146374050999952, 0.0 ], [ 106.916248516000053, -6.146403395999926, 0.0 ], [ 106.91627421700008, -6.146447254999941, 0.0 ], [ 106.91629991700006, -6.146491114999947, 0.0 ], [ 106.916333949000034, -6.146545527999933, 0.0 ], [ 106.916359228000033, -6.146585947999938, 0.0 ], [ 106.916367980000075, -6.146599941999966, 0.0 ], [ 106.916409121000072, -6.146662038999978, 0.0 ], [ 106.916446448000045, -6.146714505999967, 0.0 ], [ 106.916483776000064, -6.146766973999945, 0.0 ], [ 106.916521104000083, -6.146819440999934, 0.0 ], [ 106.916567961000055, -6.146878423999965, 0.0 ], [ 106.916614819000074, -6.146937407999928, 0.0 ], [ 106.916661677000036, -6.14699638999997, 0.0 ], [ 106.916700318000039, -6.14703777699998, 0.0 ], [ 106.916759924000075, -6.147100708999972, 0.0 ], [ 106.916809847000081, -6.147153510999942, 0.0 ], [ 106.916859770000087, -6.14720631199998, 0.0 ], [ 106.916909693000036, -6.147259113999951, 0.0 ], [ 106.916956936000076, -6.147308732999932, 0.0 ], [ 106.917004181000038, -6.147358351999969, 0.0 ], [ 106.917039714000055, -6.147395113999949, 0.0 ], [ 106.917067658000065, -6.147423882999931, 0.0 ], [ 106.917112948000067, -6.14748317599998, 0.0 ], [ 106.917156490000082, -6.147554363999973, 0.0 ], [ 106.917195509000067, -6.147628130999976, 0.0 ], [ 106.917229853000038, -6.147704191999935, 0.0 ], [ 106.917259389000037, -6.147782248999931, 0.0 ], [ 106.917284001000041, -6.147861998999929, 0.0 ], [ 106.917303593000042, -6.147943129999931, 0.0 ], [ 106.917321304000041, -6.148001742999952, 0.0 ], [ 106.91733901300006, -6.148060355999974, 0.0 ], [ 106.917344244000049, -6.148077669999964, 0.0 ], [ 106.917356724000058, -6.148118968999938, 0.0 ], [ 106.917378675000066, -6.148190990999979, 0.0 ], [ 106.917400626000074, -6.148263011999973, 0.0 ], [ 106.917421501000035, -6.148331501999962, 0.0 ], [ 106.917429095000045, -6.148356417999935, 0.0 ], [ 106.917439885000078, -6.148381920999952, 0.0 ], [ 106.91747141500008, -6.148439, 0.0 ], [ 106.917486137000083, -6.148475886999961, 0.0 ], [ 106.917501192000088, -6.148533681999936, 0.0 ], [ 106.917516247000037, -6.148591476999968, 0.0 ], [ 106.917531035000081, -6.148649733999946, 0.0 ], [ 106.917535084000065, -6.148665681999944, 0.0 ], [ 106.917539594000061, -6.148683448999975, 0.0 ], [ 106.917547155000079, -6.148713235999935, 0.0 ], [ 106.917553921000035, -6.148739888999955, 0.0 ], [ 106.917572758000063, -6.148814094999977, 0.0 ], [ 106.917571444000089, -6.148857175999979, 0.0 ], [ 106.917570270000056, -6.148895644999925, 0.0 ], [ 106.917568685000049, -6.14890060099998, 0.0 ], [ 106.917565753000076, -6.148980071999972, 0.0 ], [ 106.917575334000048, -6.14901993999996, 0.0 ], [ 106.917593479000061, -6.149077580999972, 0.0 ], [ 106.917614751000087, -6.149134139999944, 0.0 ], [ 106.917639087000055, -6.149189447999959, 0.0 ], [ 106.917674231000035, -6.149268445999951, 0.0 ], [ 106.917702086000077, -6.149350302999949, 0.0 ], [ 106.917722423000043, -6.149434346999954, 0.0 ], [ 106.917733190000035, -6.14951930999996, 0.0 ], [ 106.91774027200006, -6.14960465799993, 0.0 ], [ 106.917743656000084, -6.149690233999934, 0.0 ], [ 106.917743617000042, -6.149751752999975, 0.0 ], [ 106.917743616000052, -6.149753238999949, 0.0 ], [ 106.917743615000063, -6.149755638999977, 0.0 ], [ 106.917743574000042, -6.149821045999943, 0.0 ], [ 106.917740891000051, -6.149872329999937, 0.0 ], [ 106.917738206000081, -6.149923612999942, 0.0 ], [ 106.917731162000052, -6.15000288799996, 0.0 ], [ 106.917717654000057, -6.150085392999927, 0.0 ], [ 106.917700102000083, -6.150167133999958, 0.0 ], [ 106.917678550000062, -6.150247908999972, 0.0 ], [ 106.917653050000069, -6.15032752299993, 0.0 ], [ 106.917623663000086, -6.150405784999975, 0.0 ], [ 106.917590461000088, -6.150482502999978, 0.0 ], [ 106.917552740000076, -6.150543157999948, 0.0 ], [ 106.917518376000032, -6.150605778999932, 0.0 ], [ 106.917487469000037, -6.150670180999953, 0.0 ], [ 106.91746011400005, -6.150736171999938, 0.0 ], [ 106.917443896000066, -6.150812859999974, 0.0 ], [ 106.917434474000061, -6.150890678999929, 0.0 ], [ 106.917431924000084, -6.150969023999949, 0.0 ], [ 106.91743626300007, -6.151047290999941, 0.0 ], [ 106.917447482000057, -6.151108245999978, 0.0 ], [ 106.917451934000042, -6.151132430999951, 0.0 ], [ 106.91746760400008, -6.151217569999972, 0.0 ], [ 106.917483274000062, -6.151302708999935, 0.0 ], [ 106.917498944000045, -6.151387848999946, 0.0 ], [ 106.917514614000083, -6.151472988999956, 0.0 ], [ 106.917530285000055, -6.151558127999976, 0.0 ], [ 106.917539049000084, -6.151605746999962, 0.0 ], [ 106.917545955000037, -6.15164326799993, 0.0 ], [ 106.917576847000078, -6.151727783999945, 0.0 ], [ 106.917618429000072, -6.151807577999932, 0.0 ], [ 106.91767, -6.151881298999967, 0.0 ], [ 106.917730689000052, -6.151947702999962, 0.0 ], [ 106.917799470000034, -6.152005669999937, 0.0 ], [ 106.917847340000037, -6.15204534399993, 0.0 ], [ 106.917892038000048, -6.152088567999954, 0.0 ], [ 106.917933303000041, -6.152135083999951, 0.0 ], [ 106.917985508000072, -6.152200663999963, 0.0 ], [ 106.918034167000087, -6.152268922999951, 0.0 ], [ 106.918078391000051, -6.152337419999981, 0.0 ], [ 106.918122615000073, -6.152405915999964, 0.0 ], [ 106.918166839000037, -6.152474412999936, 0.0 ], [ 106.918211062000069, -6.152542909999966, 0.0 ], [ 106.918255286000033, -6.152611405999949, 0.0 ], [ 106.918299510000054, -6.152679902999978, 0.0 ], [ 106.918346922000069, -6.152740047999941, 0.0 ], [ 106.91839937900005, -6.152795839999953, 0.0 ], [ 106.918451418000075, -6.152861510999969, 0.0 ], [ 106.918501683000045, -6.152928550999945, 0.0 ], [ 106.918550138000057, -6.152996913999971, 0.0 ], [ 106.918596748000084, -6.153066548999959, 0.0 ], [ 106.918641479000087, -6.153137407999964, 0.0 ], [ 106.918684300000052, -6.153209439999955, 0.0 ], [ 106.918715497000051, -6.153282579999939, 0.0 ], [ 106.918743138000082, -6.153357138999979, 0.0 ], [ 106.918767158000037, -6.153432943999974, 0.0 ], [ 106.918787501000054, -6.153509820999943, 0.0 ], [ 106.91880412200004, -6.153587586999947, 0.0 ], [ 106.918812743000046, -6.153633785999943, 0.0 ], [ 106.918821364000053, -6.153679985999929, 0.0 ], [ 106.918839448000085, -6.153746712999975, 0.0 ], [ 106.918857531000072, -6.153813441999944, 0.0 ], [ 106.918875614000058, -6.153880168999933, 0.0 ], [ 106.918893698000034, -6.153946896999969, 0.0 ], [ 106.918918244000054, -6.154020172999935, 0.0 ], [ 106.918942790000074, -6.154093447999969, 0.0 ], [ 106.918967337000083, -6.154166724999925, 0.0 ], [ 106.918999420000034, -6.154248333999931, 0.0 ], [ 106.919034928000087, -6.154328508999981, 0.0 ], [ 106.919073798000056, -6.15440710699994, 0.0 ], [ 106.919115960000056, -6.154483985999946, 0.0 ], [ 106.919161338000038, -6.154559008999968, 0.0 ], [ 106.919200403000048, -6.15462671399996, 0.0 ], [ 106.919239469000047, -6.154694417999963, 0.0 ], [ 106.919278535000046, -6.154762121999966, 0.0 ], [ 106.919317600000056, -6.154829825999968, 0.0 ], [ 106.919356666000056, -6.154897529999971, 0.0 ], [ 106.919395732000055, -6.154965233999974, 0.0 ], [ 106.919434798000054, -6.155032938999966, 0.0 ], [ 106.91946099900008, -6.155091238999944, 0.0 ], [ 106.91948018800008, -6.155152211999962, 0.0 ], [ 106.919492098000035, -6.155215016999932, 0.0 ], [ 106.919493325000076, -6.155287734999945, 0.0 ], [ 106.919493346000081, -6.155360463999955, 0.0 ], [ 106.919492164000076, -6.155433181999967, 0.0 ], [ 106.919497968000087, -6.155519780999953, 0.0 ], [ 106.919509101000074, -6.155605855999966, 0.0 ], [ 106.919525521000082, -6.155691078999951, 0.0 ], [ 106.919565950000049, -6.155753192999953, 0.0 ], [ 106.919606379000072, -6.155815308999934, 0.0 ], [ 106.919646808000039, -6.155877422999936, 0.0 ], [ 106.919687237000062, -6.155939538999974, 0.0 ], [ 106.919727666000085, -6.156001653999965, 0.0 ], [ 106.919781528000044, -6.156045493999954, 0.0 ], [ 106.919832014000065, -6.156093188999932, 0.0 ], [ 106.919878851000078, -6.156144478999977, 0.0 ], [ 106.919921783000063, -6.156199083999979, 0.0 ], [ 106.919944438000073, -6.156251389999966, 0.0 ], [ 106.919967093000082, -6.156303696999942, 0.0 ], [ 106.919991635000088, -6.156374592999953, 0.0 ], [ 106.920013529000073, -6.156446352999978, 0.0 ], [ 106.920032745000071, -6.156518876999939, 0.0 ], [ 106.920049258000063, -6.156592063999938, 0.0 ], [ 106.920063043000084, -6.15666581499994, 0.0 ], [ 106.920067556000049, -6.156737256999975, 0.0 ], [ 106.92007598400005, -6.156808341999977, 0.0 ], [ 106.920089340000061, -6.156894303999934, 0.0 ], [ 106.92010831500005, -6.156979200999956, 0.0 ], [ 106.920132826000042, -6.157062664999955, 0.0 ], [ 106.920155698000087, -6.157118878999938, 0.0 ], [ 106.920157449000044, -6.157123181999964, 0.0 ], [ 106.920199192000041, -6.157173422999961, 0.0 ], [ 106.920242361000078, -6.157214412999963, 0.0 ], [ 106.920295124000063, -6.157264338999937, 0.0 ], [ 106.920347886000059, -6.157314264999968, 0.0 ], [ 106.920400649000044, -6.157364190999942, 0.0 ], [ 106.92045341100004, -6.157414117999963, 0.0 ], [ 106.920508341000073, -6.157480770999939, 0.0 ], [ 106.920553559000041, -6.157554371999936, 0.0 ], [ 106.920596015000058, -6.157621498999958, 0.0 ], [ 106.920638472000064, -6.157688624999935, 0.0 ], [ 106.920680929000071, -6.157755751999957, 0.0 ], [ 106.920723387000066, -6.157822879999969, 0.0 ], [ 106.920765844000073, -6.157890006999935, 0.0 ], [ 106.920808301000079, -6.157957133999957, 0.0 ], [ 106.920850758000086, -6.158024259999934, 0.0 ], [ 106.920893215000035, -6.158091386999956, 0.0 ], [ 106.920945196000048, -6.158157854999956, 0.0 ], [ 106.921001662000037, -6.158220549999953, 0.0 ], [ 106.921062340000049, -6.158279171999936, 0.0 ], [ 106.921126937000054, -6.158333436999953, 0.0 ], [ 106.921176863000085, -6.158380080999962, 0.0 ], [ 106.92122678800007, -6.15842672499997, 0.0 ], [ 106.921276714000044, -6.158473368999978, 0.0 ], [ 106.921330558000079, -6.158527611999943, 0.0 ], [ 106.921379433000084, -6.158586379999974, 0.0 ], [ 106.921422958000051, -6.158649217999937, 0.0 ], [ 106.921460799000045, -6.158715640999958, 0.0 ], [ 106.921492663000038, -6.15878513399997, 0.0 ], [ 106.921518303000084, -6.158857160999958, 0.0 ], [ 106.921529886000087, -6.158923945999959, 0.0 ], [ 106.921531192000089, -6.158991715999946, 0.0 ], [ 106.92152218800004, -6.159058898999945, 0.0 ], [ 106.921503087000076, -6.159123929999964, 0.0 ], [ 106.92146831000008, -6.159201181999947, 0.0 ], [ 106.921433533000084, -6.15927843299994, 0.0 ], [ 106.921398756000087, -6.15935568499998, 0.0 ], [ 106.921363979000034, -6.159432935999973, 0.0 ], [ 106.921329202000038, -6.159510186999967, 0.0 ], [ 106.921310902000073, -6.159585240999945, 0.0 ], [ 106.921308993000082, -6.15966247199998, 0.0 ], [ 106.921323562000055, -6.159738338999944, 0.0 ], [ 106.921353940000074, -6.15980935999994, 0.0 ], [ 106.92140231500008, -6.159880450999935, 0.0 ], [ 106.921452756000065, -6.159950089999938, 0.0 ], [ 106.921505219000039, -6.160018215999969, 0.0 ], [ 106.921559658000035, -6.160084769999969, 0.0 ], [ 106.921598192000033, -6.160149279999928, 0.0 ], [ 106.921636726000088, -6.160213789999943, 0.0 ], [ 106.921675260000086, -6.16027829899997, 0.0 ], [ 106.921713794000084, -6.160342808999928, 0.0 ], [ 106.921752327000036, -6.160407317999955, 0.0 ], [ 106.921793360000038, -6.160481945999948, 0.0 ], [ 106.92183439300004, -6.16055657499993, 0.0 ], [ 106.921875426000042, -6.16063120299998, 0.0 ], [ 106.921916459000045, -6.160705831999962, 0.0 ], [ 106.921948315000066, -6.160777284999938, 0.0 ], [ 106.921971056000075, -6.160852145999968, 0.0 ], [ 106.921984327000075, -6.160929254999928, 0.0 ], [ 106.921987924000064, -6.161007416999951, 0.0 ], [ 106.921979914000076, -6.161091232999979, 0.0 ], [ 106.921975497000062, -6.16117531499998, 0.0 ], [ 106.921974918000046, -6.161234963999959, 0.0 ], [ 106.921974832000046, -6.161243986999978, 0.0 ], [ 106.921974680000062, -6.161259509999979, 0.0 ], [ 106.921977464000065, -6.161343662999968, 0.0 ], [ 106.921986159000085, -6.161419656999954, 0.0 ], [ 106.921994852000068, -6.16149564899996, 0.0 ], [ 106.922003546000042, -6.161571642999945, 0.0 ], [ 106.922009021000065, -6.161619483999971, 0.0 ], [ 106.92201224300004, -6.16164763699993, 0.0 ], [ 106.922024136000061, -6.161722825999959, 0.0 ], [ 106.922036030000072, -6.161798015999977, 0.0 ], [ 106.922047923000036, -6.161873206999928, 0.0 ], [ 106.922060980000083, -6.161945463999928, 0.0 ], [ 106.922071127000038, -6.16201818899998, 0.0 ], [ 106.922078347000081, -6.162091262999979, 0.0 ], [ 106.922079167000049, -6.162152332999938, 0.0 ], [ 106.922072013000047, -6.162212986999975, 0.0 ], [ 106.922066174000065, -6.16223602599996, 0.0 ], [ 106.922057009000071, -6.162272187999974, 0.0 ], [ 106.922051787000044, -6.162278906999973, 0.0 ], [ 106.922003087000064, -6.16234155799998, 0.0 ], [ 106.921951571000079, -6.162412737999944, 0.0 ], [ 106.921902524000075, -6.162485643999958, 0.0 ], [ 106.921879377000039, -6.162526405999927, 0.0 ], [ 106.921875717000034, -6.16253285099998, 0.0 ], [ 106.921871416000045, -6.162540424999975, 0.0 ], [ 106.921861359000047, -6.162564257999975, 0.0 ], [ 106.921846922000043, -6.162598473999935, 0.0 ], [ 106.921831466000071, -6.16268704099997, 0.0 ], [ 106.921816010000043, -6.162775605999968, 0.0 ], [ 106.921800555000061, -6.162864171999956, 0.0 ], [ 106.921785097000054, -6.162952737999944, 0.0 ], [ 106.921769640000036, -6.163041303999933, 0.0 ], [ 106.921754185000054, -6.163129869999977, 0.0 ], [ 106.921741346000033, -6.163215077999951, 0.0 ], [ 106.921728507000068, -6.163300285999981, 0.0 ], [ 106.921715667000058, -6.163385492999964, 0.0 ], [ 106.921705548000034, -6.163452651999933, 0.0 ], [ 106.921702828000036, -6.163470699999948, 0.0 ], [ 106.921689988000082, -6.163555907999978, 0.0 ], [ 106.921677149000061, -6.163641115999951, 0.0 ], [ 106.921665252000082, -6.163722431999929, 0.0 ], [ 106.921653356000036, -6.163803749999943, 0.0 ], [ 106.921641458000067, -6.163885065999978, 0.0 ], [ 106.921629561000088, -6.163966382999945, 0.0 ], [ 106.921617664000053, -6.164047700999959, 0.0 ], [ 106.921605767000074, -6.164129016999937, 0.0 ], [ 106.921593870000038, -6.16421033499995, 0.0 ], [ 106.921581974000048, -6.164291650999928, 0.0 ], [ 106.92156869300004, -6.164359858999944, 0.0 ], [ 106.921555412000089, -6.164428065999971, 0.0 ], [ 106.921542134000049, -6.164496272999941, 0.0 ], [ 106.921524270000077, -6.164581110999961, 0.0 ], [ 106.921506407000038, -6.164665949999971, 0.0 ], [ 106.921488543000066, -6.164750787999935, 0.0 ], [ 106.921470680000084, -6.164835626999945, 0.0 ], [ 106.921452817000045, -6.164920464999966, 0.0 ], [ 106.921434954000063, -6.165005303999976, 0.0 ], [ 106.92141709100008, -6.16509014199994, 0.0 ], [ 106.921416839000074, -6.165091340999936, 0.0 ], [ 106.921416818000068, -6.165091437999934, 0.0 ], [ 106.921408159000066, -6.16513256099995, 0.0 ], [ 106.921399228000041, -6.16517498099995, 0.0 ], [ 106.921381365000059, -6.165259818999971, 0.0 ], [ 106.921363501000087, -6.165344657999981, 0.0 ], [ 106.921345638000048, -6.165429495999945, 0.0 ], [ 106.921327775000066, -6.165514334999955, 0.0 ], [ 106.921309912000083, -6.165599172999976, 0.0 ], [ 106.921292049000044, -6.165684011999929, 0.0 ], [ 106.921274186000062, -6.165768849999949, 0.0 ], [ 106.92125632300008, -6.16585368899996, 0.0 ], [ 106.921237977000033, -6.165936658999954, 0.0 ], [ 106.921223249000036, -6.166003260999958, 0.0 ], [ 106.921219630000053, -6.166019628999948, 0.0 ], [ 106.92120364200008, -6.166093364999938, 0.0 ], [ 106.92118765400005, -6.166167100999928, 0.0 ], [ 106.921171667000067, -6.166240837999965, 0.0 ], [ 106.921155679000037, -6.166314574999944, 0.0 ], [ 106.921139691000064, -6.166388309999945, 0.0 ], [ 106.921123703000035, -6.166462046999925, 0.0 ], [ 106.921101544000066, -6.16654776699994, 0.0 ], [ 106.921079386000088, -6.166633486999956, 0.0 ], [ 106.921060951000072, -6.166704798999945, 0.0 ], [ 106.921060681000085, -6.166705845999957, 0.0 ], [ 106.921056908000082, -6.166710203999969, 0.0 ], [ 106.921057891000032, -6.166716632999965, 0.0 ], [ 106.921057490000067, -6.166718184999979, 0.0 ], [ 106.921057226000073, -6.166719206999971, 0.0 ], [ 106.921043566000037, -6.166800302999945, 0.0 ], [ 106.921038596000074, -6.16688239299998, 0.0 ], [ 106.921042373000034, -6.166964546999964, 0.0 ], [ 106.921054854000033, -6.167045831999928, 0.0 ], [ 106.921075898000083, -6.167125329999976, 0.0 ], [ 106.921085283000082, -6.167156392999971, 0.0 ], [ 106.921099278000042, -6.167202712999938, 0.0 ], [ 106.92111219700007, -6.167282516999933, 0.0 ], [ 106.921114426000088, -6.167363329999944, 0.0 ], [ 106.921105925000063, -6.167443725999931, 0.0 ], [ 106.921086844000058, -6.167522281999936, 0.0 ], [ 106.92105752100008, -6.167597610999962, 0.0 ], [ 106.921026998000059, -6.167678569999964, 0.0 ], [ 106.920993111000087, -6.167758176999939, 0.0 ], [ 106.92095591900005, -6.167836291999947, 0.0 ], [ 106.920915486000069, -6.16791277699997, 0.0 ], [ 106.920871885000054, -6.167987497999945, 0.0 ], [ 106.920852139000033, -6.168018294999968, 0.0 ], [ 106.920825192000052, -6.168060323999953, 0.0 ], [ 106.920775488000061, -6.168131125999935, 0.0 ], [ 106.920773808000035, -6.16813529999996, 0.0 ], [ 106.920744884000044, -6.168207127999949, 0.0 ], [ 106.920721804000038, -6.168264442999941, 0.0 ], [ 106.920714279000038, -6.168283129999963, 0.0 ], [ 106.920683674000088, -6.168359132999967, 0.0 ], [ 106.920653070000071, -6.168435133999935, 0.0 ], [ 106.92063898400005, -6.16850605299993, 0.0 ], [ 106.920624898000085, -6.168576971999926, 0.0 ], [ 106.920610813000053, -6.168647890999978, 0.0 ], [ 106.920596727000088, -6.168718809999973, 0.0 ], [ 106.920550390000074, -6.168794330999958, 0.0 ], [ 106.920504053000059, -6.168869851999943, 0.0 ], [ 106.920481543000051, -6.16895474599994, 0.0 ], [ 106.920459034000032, -6.169039640999927, 0.0 ], [ 106.920436524000081, -6.16912453499998, 0.0 ], [ 106.920414014000073, -6.169209429999967, 0.0 ], [ 106.920391504000065, -6.169294324999953, 0.0 ], [ 106.920368995000047, -6.16937921899995, 0.0 ], [ 106.920346485000039, -6.169464113999936, 0.0 ], [ 106.920323975000088, -6.169549007999933, 0.0 ], [ 106.92030146500008, -6.169633902999976, 0.0 ], [ 106.920278956000061, -6.169718797999963, 0.0 ], [ 106.920256446000053, -6.169803691999959, 0.0 ], [ 106.920264822000036, -6.169889480999927, 0.0 ], [ 106.920273198000075, -6.169975269999952, 0.0 ], [ 106.92027717700006, -6.170016027999964, 0.0 ], [ 106.920281573000068, -6.170061058999977, 0.0 ], [ 106.92028994900005, -6.170146847999945, 0.0 ], [ 106.920298325000033, -6.17023263699997, 0.0 ], [ 106.920306701000072, -6.170318425999938, 0.0 ], [ 106.920315077000055, -6.170404214999962, 0.0 ], [ 106.920323453000037, -6.17049000399993, 0.0 ], [ 106.920331829000077, -6.170575792999955, 0.0 ], [ 106.920340205000059, -6.17066158199998, 0.0 ], [ 106.920348580000052, -6.170747370999948, 0.0 ], [ 106.920356956000035, -6.170833159999972, 0.0 ], [ 106.920369116000074, -6.170913887999973, 0.0 ], [ 106.920381274000079, -6.170994616999963, 0.0 ], [ 106.92039116400008, -6.171072948999949, 0.0 ], [ 106.92040105500007, -6.171151279999947, 0.0 ], [ 106.920404242000075, -6.171176518999971, 0.0 ], [ 106.920410946000061, -6.17122961299998, 0.0 ], [ 106.920420837000052, -6.171307943999977, 0.0 ], [ 106.920430727000053, -6.171386275999964, 0.0 ], [ 106.920440504000055, -6.171463028999938, 0.0 ], [ 106.920441203000053, -6.171468512999979, 0.0 ], [ 106.920450283000037, -6.171539782999957, 0.0 ], [ 106.920460060000039, -6.171616535999931, 0.0 ], [ 106.920469837000041, -6.171693289999951, 0.0 ], [ 106.920479984000053, -6.171773092999956, 0.0 ], [ 106.920490131000065, -6.171852894999972, 0.0 ], [ 106.920500278000077, -6.171932695999942, 0.0 ], [ 106.920510425000089, -6.172012498999948, 0.0 ], [ 106.92052119300007, -6.172095420999938, 0.0 ], [ 106.920531961000052, -6.172178342999928, 0.0 ], [ 106.920542728000044, -6.172261263999928, 0.0 ], [ 106.920552803000078, -6.172338848999971, 0.0 ], [ 106.920553496000082, -6.172344185999975, 0.0 ], [ 106.920563263000076, -6.17241940599996, 0.0 ], [ 106.920564264000063, -6.172427107999965, 0.0 ], [ 106.920576772000061, -6.172515332999978, 0.0 ], [ 106.920589279000069, -6.17260355999997, 0.0 ], [ 106.920601787000066, -6.172691785999973, 0.0 ], [ 106.920612788000085, -6.172759921999955, 0.0 ], [ 106.920623790000036, -6.172828059999972, 0.0 ], [ 106.920634792000044, -6.172896196999943, 0.0 ], [ 106.920640516000049, -6.172927164999976, 0.0 ], [ 106.920649905000062, -6.172977954999965, 0.0 ], [ 106.920657994000067, -6.173021706999975, 0.0 ], [ 106.920665020000058, -6.17305971199994, 0.0 ], [ 106.920680133000076, -6.173141469999962, 0.0 ], [ 106.920698297000058, -6.173174883999934, 0.0 ], [ 106.920712256000058, -6.173200560999931, 0.0 ], [ 106.920723893000059, -6.173246089999964, 0.0 ], [ 106.92073339500007, -6.173296291999975, 0.0 ], [ 106.920745439000086, -6.173355453999932, 0.0 ], [ 106.920756598000082, -6.17341731099998, 0.0 ], [ 106.920767756000032, -6.173479167999972, 0.0 ], [ 106.920776566000086, -6.173536009999964, 0.0 ], [ 106.920782457000087, -6.173574021999968, 0.0 ], [ 106.920785375000037, -6.173592852999946, 0.0 ], [ 106.920793426000046, -6.173638213999936, 0.0 ], [ 106.920801477000055, -6.173683576999963, 0.0 ], [ 106.920811386000082, -6.173747052999943, 0.0 ], [ 106.920821996000086, -6.173805441999946, 0.0 ], [ 106.92082748100006, -6.17383562599997, 0.0 ], [ 106.920834827000078, -6.17388422099998, 0.0 ], [ 106.92084217300004, -6.173932813999954, 0.0 ], [ 106.920850984000083, -6.173990014999958, 0.0 ], [ 106.92085979400008, -6.174047215999963, 0.0 ], [ 106.920873687000039, -6.174121801999945, 0.0 ], [ 106.920880312000065, -6.174169322999944, 0.0 ], [ 106.920886936000045, -6.174216842999954, 0.0 ], [ 106.92089502500005, -6.174272789999975, 0.0 ], [ 106.920898420000071, -6.174296265999942, 0.0 ], [ 106.920903115000044, -6.174328737999929, 0.0 ], [ 106.920910997000078, -6.174376612999936, 0.0 ], [ 106.920918878000066, -6.174424487999943, 0.0 ], [ 106.920919405000063, -6.174427074999926, 0.0 ], [ 106.920936032000043, -6.174508749999973, 0.0 ], [ 106.92094594200006, -6.174572585999954, 0.0 ], [ 106.920954403000053, -6.174631939999927, 0.0 ], [ 106.920962863000057, -6.174691294999946, 0.0 ], [ 106.920968961000085, -6.174741687999926, 0.0 ], [ 106.920975058000067, -6.174792081999954, 0.0 ], [ 106.920984935000035, -6.17484658799998, 0.0 ], [ 106.920994811000071, -6.17490109299996, 0.0 ], [ 106.921003997000071, -6.174962777999951, 0.0 ], [ 106.921015320000038, -6.175020686999972, 0.0 ], [ 106.921026643000062, -6.175078596999981, 0.0 ], [ 106.921031768000034, -6.175106591999963, 0.0 ], [ 106.921039444000087, -6.175148521999972, 0.0 ], [ 106.921045345000039, -6.175194070999964, 0.0 ], [ 106.921049028000084, -6.175221220999958, 0.0 ], [ 106.921050501000082, -6.175232087999973, 0.0 ], [ 106.921071213000062, -6.175308443999938, 0.0 ], [ 106.921086591000062, -6.175397017999956, 0.0 ], [ 106.921097205000081, -6.17545708199998, 0.0 ], [ 106.921107819000042, -6.175517147999926, 0.0 ], [ 106.921118106000051, -6.175586005999946, 0.0 ], [ 106.921133008000083, -6.17564228699996, 0.0 ], [ 106.921139370000049, -6.175658341999963, 0.0 ], [ 106.921155441000053, -6.175698899999929, 0.0 ], [ 106.921168123000086, -6.17573581399995, 0.0 ], [ 106.92117651500007, -6.175776330999952, 0.0 ], [ 106.921178438000084, -6.175795670999946, 0.0 ], [ 106.921169049000071, -6.175843547999932, 0.0 ], [ 106.921165620000068, -6.175886619999972, 0.0 ], [ 106.921176535000086, -6.175930834999974, 0.0 ], [ 106.92118051500006, -6.175946955999962, 0.0 ], [ 106.921187450000048, -6.175975050999966, 0.0 ], [ 106.921198339000057, -6.176012089999972, 0.0 ], [ 106.921218838000073, -6.176062251999952, 0.0 ], [ 106.921251304000066, -6.17611715399994, 0.0 ], [ 106.921273715000041, -6.176200798999957, 0.0 ], [ 106.921296126000072, -6.176284444999965, 0.0 ], [ 106.921316687000058, -6.176352147999978, 0.0 ], [ 106.921337248000043, -6.17641985299997, 0.0 ], [ 106.921348996000063, -6.176458539999942, 0.0 ], [ 106.921357809000085, -6.176487555999927, 0.0 ], [ 106.921379576000049, -6.176558444999955, 0.0 ], [ 106.92140134400006, -6.176629334999973, 0.0 ], [ 106.921423111000081, -6.176700223999944, 0.0 ], [ 106.921444878000045, -6.176770713999929, 0.0 ], [ 106.921464858000036, -6.176835424999979, 0.0 ], [ 106.921466643000088, -6.17684120499996, 0.0 ], [ 106.921488410000052, -6.176911695999934, 0.0 ], [ 106.921510177000073, -6.176982185999975, 0.0 ], [ 106.921539936000045, -6.177059823999969, 0.0 ], [ 106.921550017000072, -6.177086122999981, 0.0 ], [ 106.921569696000063, -6.177137460999973, 0.0 ], [ 106.921599455000035, -6.177215099999955, 0.0 ], [ 106.921614716000079, -6.177250602999948, 0.0 ], [ 106.921627175000083, -6.177279587999976, 0.0 ], [ 106.921654895000074, -6.17734407599994, 0.0 ], [ 106.921682615000066, -6.177408564999951, 0.0 ], [ 106.921705964000068, -6.177476258999945, 0.0 ], [ 106.921729314000061, -6.17754395299994, 0.0 ], [ 106.921743477000064, -6.177585009999973, 0.0 ], [ 106.921752664000053, -6.177611645999946, 0.0 ], [ 106.921772759000078, -6.177682620999974, 0.0 ], [ 106.921792854000046, -6.177753595999945, 0.0 ], [ 106.921805139000071, -6.177796986999965, 0.0 ], [ 106.921812949000071, -6.177824570999974, 0.0 ], [ 106.921833044000039, -6.177895545999945, 0.0 ], [ 106.921853139000063, -6.177966520999973, 0.0 ], [ 106.921866527000077, -6.178033451999966, 0.0 ], [ 106.921879914000044, -6.178100384999937, 0.0 ], [ 106.921893302000058, -6.178167316999975, 0.0 ], [ 106.921906690000071, -6.178234249999946, 0.0 ], [ 106.921900921000088, -6.178291682999941, 0.0 ], [ 106.921889207000049, -6.178357509999955, 0.0 ], [ 106.921877494000057, -6.17842333699997, 0.0 ], [ 106.921876172000054, -6.178439524999931, 0.0 ], [ 106.921873488000074, -6.178472390999957, 0.0 ], [ 106.921871807000059, -6.17849297999993, 0.0 ], [ 106.92186948300008, -6.178521444999944, 0.0 ], [ 106.92186375700004, -6.17859083899998, 0.0 ], [ 106.921840115000066, -6.178662688999964, 0.0 ], [ 106.921820420000074, -6.178724956999929, 0.0 ], [ 106.921800727000061, -6.178787224999951, 0.0 ], [ 106.921781033000059, -6.178849492999973, 0.0 ], [ 106.921778583000048, -6.178858820999949, 0.0 ], [ 106.921766886000057, -6.178903366999975, 0.0 ], [ 106.921751553000036, -6.17895963899997, 0.0 ], [ 106.921749309000063, -6.17900031299996, 0.0 ], [ 106.921767447000036, -6.179058855999926, 0.0 ], [ 106.921769614000084, -6.179064941999968, 0.0 ], [ 106.921789984000043, -6.179122166999946, 0.0 ], [ 106.921812522000039, -6.179185478999955, 0.0 ], [ 106.921826471000088, -6.179224663999946, 0.0 ], [ 106.921835059000045, -6.179248789999974, 0.0 ], [ 106.921858421000081, -6.179320071999939, 0.0 ], [ 106.92188178400005, -6.179391352999971, 0.0 ], [ 106.921905147000075, -6.179462634999936, 0.0 ], [ 106.92190731900007, -6.179469610999945, 0.0 ], [ 106.921926911000071, -6.179532527999925, 0.0 ], [ 106.921948676000056, -6.179602419999981, 0.0 ], [ 106.921951251000053, -6.179653841999937, 0.0 ], [ 106.921953827000038, -6.179705264999939, 0.0 ], [ 106.921953211000073, -6.179718400999946, 0.0 ], [ 106.921950498000058, -6.179776244999971, 0.0 ], [ 106.921947169000077, -6.179847223999957, 0.0 ], [ 106.921944644000064, -6.179901060999953, 0.0 ], [ 106.92194384000004, -6.179918203999932, 0.0 ], [ 106.921938072000046, -6.179975635999938, 0.0 ], [ 106.921935528000063, -6.180000962999941, 0.0 ], [ 106.921932304000052, -6.180033069999979, 0.0 ], [ 106.921918820000087, -6.180104883999945, 0.0 ], [ 106.921905334000087, -6.180176697999968, 0.0 ], [ 106.92188761500006, -6.180234173999963, 0.0 ], [ 106.921880265000084, -6.180244856999934, 0.0 ], [ 106.921853663000036, -6.180283522999957, 0.0 ], [ 106.921847193000076, -6.180292927999972, 0.0 ], [ 106.921814525000059, -6.180328724999981, 0.0 ], [ 106.92181396400008, -6.180329338999968, 0.0 ], [ 106.92181336200008, -6.180329997999934, 0.0 ], [ 106.921808879000082, -6.180334909999942, 0.0 ], [ 106.921805293000034, -6.180338838999944, 0.0 ], [ 106.921793079000054, -6.180352223999932, 0.0 ], [ 106.921792434000054, -6.18035292999997, 0.0 ], [ 106.921768588000077, -6.18036856599997, 0.0 ], [ 106.921743552000066, -6.180385400999967, 0.0 ], [ 106.921722566000085, -6.180397088999939, 0.0 ], [ 106.921721337000065, -6.180397772999925, 0.0 ], [ 106.921708963000071, -6.18040466399998, 0.0 ], [ 106.921676794000064, -6.180432289999942, 0.0 ], [ 106.921667421000052, -6.180445078999981, 0.0 ], [ 106.921662996000066, -6.180451114999926, 0.0 ], [ 106.921656576000032, -6.180459872999961, 0.0 ], [ 106.921646717000044, -6.180483797999955, 0.0 ], [ 106.921646142000043, -6.180485193999971, 0.0 ], [ 106.921638992000055, -6.180502544999968, 0.0 ], [ 106.921638806000033, -6.180502995999973, 0.0 ], [ 106.921638699000084, -6.180503520999935, 0.0 ], [ 106.921634098000084, -6.180525917999944, 0.0 ], [ 106.921628235000071, -6.180554466999979, 0.0 ], [ 106.921636899000077, -6.180636964999962, 0.0 ], [ 106.921653803000083, -6.18068474699993, 0.0 ], [ 106.921692215000064, -6.180731255999945, 0.0 ], [ 106.921741395000083, -6.180781312999954, 0.0 ], [ 106.921790576000035, -6.180831370999954, 0.0 ], [ 106.921824783000034, -6.180871913999965, 0.0 ], [ 106.921858990000032, -6.180912456999977, 0.0 ], [ 106.921875946000057, -6.180974592999974, 0.0 ], [ 106.921879707000073, -6.18102302099993, 0.0 ], [ 106.921883466000054, -6.181071448999944, 0.0 ], [ 106.921880093000084, -6.181130068999948, 0.0 ], [ 106.921877348000066, -6.181197058999942, 0.0 ], [ 106.921874753000054, -6.181260339999938, 0.0 ], [ 106.921874728000034, -6.181260954999971, 0.0 ], [ 106.92187460100007, -6.181264050999971, 0.0 ], [ 106.921874867000042, -6.181337607999978, 0.0 ], [ 106.921874990000049, -6.181371741999953, 0.0 ], [ 106.921874993000074, -6.181372573999965, 0.0 ], [ 106.921875132000082, -6.181411166999965, 0.0 ], [ 106.921880077000083, -6.181456600999979, 0.0 ], [ 106.921893309000041, -6.181480473999954, 0.0 ], [ 106.921950758000037, -6.181503389999932, 0.0 ], [ 106.921971632000066, -6.181511717999967, 0.0 ], [ 106.922008206000044, -6.181526306999956, 0.0 ], [ 106.92206565400005, -6.181549222999934, 0.0 ], [ 106.922086015000048, -6.181561110999951, 0.0 ], [ 106.922095778000084, -6.181617291999942, 0.0 ], [ 106.922096560000057, -6.181668122999952, 0.0 ], [ 106.92209734000005, -6.181718952999972, 0.0 ], [ 106.922096318000058, -6.181766800999981, 0.0 ], [ 106.922105445000057, -6.181812218999937, 0.0 ], [ 106.922114573000044, -6.181857636999951, 0.0 ], [ 106.922134558000039, -6.181931123999959, 0.0 ], [ 106.922154542000044, -6.182004610999968, 0.0 ], [ 106.92218291100005, -6.182082851999951, 0.0 ], [ 106.922195937000083, -6.182118781999975, 0.0 ], [ 106.922211278000077, -6.182161092999934, 0.0 ], [ 106.922235483000065, -6.182244730999969, 0.0 ], [ 106.922259687000064, -6.182328369999937, 0.0 ], [ 106.922279874000083, -6.182402453999941, 0.0 ], [ 106.92228646500007, -6.182426644999964, 0.0 ], [ 106.922300059000065, -6.182476537999946, 0.0 ], [ 106.922320246000083, -6.182550621999951, 0.0 ], [ 106.922344369000086, -6.182611534999978, 0.0 ], [ 106.922368491000043, -6.182672448999938, 0.0 ], [ 106.922385410000061, -6.182724416999974, 0.0 ], [ 106.922402330000068, -6.182776385999944, 0.0 ], [ 106.922418123000057, -6.182847494999976, 0.0 ], [ 106.922433917000035, -6.182918604999941, 0.0 ], [ 106.922447352000063, -6.182998693999934, 0.0 ], [ 106.92246078800008, -6.183078782999928, 0.0 ], [ 106.922463396000069, -6.183094327999925, 0.0 ], [ 106.922403676000044, -6.183088167999927, 0.0 ], [ 106.922327132000078, -6.183082250999973, 0.0 ], [ 106.921818381000037, -6.183042919999934, 0.0 ], [ 106.921125073000042, -6.182986748999951, 0.0 ], [ 106.92086869600007, -6.18296597799997, 0.0 ], [ 106.920726788000081, -6.182954762999941, 0.0 ], [ 106.920315809000044, -6.18292228599995, 0.0 ], [ 106.919896067000082, -6.182889115999956, 0.0 ], [ 106.919233677000079, -6.182835491999981, 0.0 ], [ 106.918848431000072, -6.182804303999944, 0.0 ], [ 106.918691031000037, -6.182791561999977, 0.0 ], [ 106.918575901000054, -6.18278266599998, 0.0 ], [ 106.918284867000068, -6.182760177999967, 0.0 ], [ 106.917732752000063, -6.182717514999979, 0.0 ], [ 106.91736551300005, -6.18268369599997, 0.0 ], [ 106.91723780600006, -6.182671935999963, 0.0 ], [ 106.916693602000066, -6.182627413999967, 0.0 ], [ 106.916666666000083, -6.182625209999969, 0.0 ], [ 106.915788777000046, -6.182575546999942, 0.0 ], [ 106.915617962000056, -6.182565882999938, 0.0 ], [ 106.915087466000045, -6.18253587099997, 0.0 ], [ 106.914911649000032, -6.182525923999947, 0.0 ], [ 106.914568993000046, -6.182495993999964, 0.0 ], [ 106.914322320000053, -6.182474446999947, 0.0 ], [ 106.91415181800005, -6.182461384999954, 0.0 ], [ 106.914116858000057, -6.182458705999977, 0.0 ], [ 106.913869820000059, -6.182439780999971, 0.0 ], [ 106.91378917600008, -6.182431300999951, 0.0 ], [ 106.913708175000068, -6.182427525999969, 0.0 ], [ 106.913695931000063, -6.182427668999935, 0.0 ], [ 106.913653840000052, -6.182428159999972, 0.0 ], [ 106.91362709200007, -6.18242847099998, 0.0 ], [ 106.913546201000088, -6.182434129999933, 0.0 ], [ 106.913465776000066, -6.182444485999952, 0.0 ], [ 106.913062618000083, -6.182534103999956, 0.0 ], [ 106.913026637000087, -6.182542101999957, 0.0 ], [ 106.912861583000051, -6.182584378999934, 0.0 ], [ 106.912570925000068, -6.182658826999955, 0.0 ], [ 106.912529803000041, -6.182670634999965, 0.0 ], [ 106.912419378000038, -6.18270234299996, 0.0 ], [ 106.91236893100006, -6.18271225899997, 0.0 ], [ 106.912351001000047, -6.182715783999981, 0.0 ], [ 106.912315198000044, -6.182720083999925, 0.0 ], [ 106.912314959000071, -6.18272011199997, 0.0 ], [ 106.912314560000084, -6.182720085999961, 0.0 ], [ 106.912281177000068, -6.182724095999959, 0.0 ], [ 106.912211847000037, -6.182727213999954, 0.0 ], [ 106.912211564000074, -6.18272722699993, 0.0 ], [ 106.912151766000079, -6.182725454999968, 0.0 ], [ 106.912141911000049, -6.182725163999976, 0.0 ], [ 106.912072605000048, -6.182717915999945, 0.0 ], [ 106.912004305000039, -6.182705584999951, 0.0 ], [ 106.911937106000039, -6.182688219999932, 0.0 ], [ 106.911871379000047, -6.182665916999952, 0.0 ], [ 106.911850879000042, -6.182655963999935, 0.0 ], [ 106.911817243000087, -6.182647623999969, 0.0 ], [ 106.911528856000075, -6.182500232999928, 0.0 ], [ 106.911396890000049, -6.182439707999947, 0.0 ], [ 106.911300274000041, -6.182397728999945, 0.0 ], [ 106.91128746000004, -6.182392504999939, 0.0 ], [ 106.911271123000063, -6.182385845999931, 0.0 ], [ 106.911194886000033, -6.182359043999952, 0.0 ], [ 106.911127298000054, -6.182338941999944, 0.0 ], [ 106.911117430000047, -6.182336006999947, 0.0 ], [ 106.911032510000041, -6.18231317599998, 0.0 ], [ 106.910791868000047, -6.182285348999926, 0.0 ], [ 106.910791238000058, -6.182285276999949, 0.0 ], [ 106.910698270000069, -6.182274524999968, 0.0 ], [ 106.910611381000081, -6.182274538999934, 0.0 ], [ 106.910610743000063, -6.18227453999998, 0.0 ], [ 106.910474758000078, -6.182274560999929, 0.0 ], [ 106.910474129000079, -6.182274561999975, 0.0 ], [ 106.910331865000046, -6.182297486999971, 0.0 ], [ 106.910239769000043, -6.182315034999931, 0.0 ], [ 106.910210574000075, -6.182315038999946, 0.0 ], [ 106.910210536000079, -6.182315038999946, 0.0 ], [ 106.910209937000047, -6.182315038999946, 0.0 ], [ 106.910209898000062, -6.182315038999946, 0.0 ], [ 106.910180942000068, -6.18231504299996, 0.0 ], [ 106.91018030400005, -6.182315043999949, 0.0 ], [ 106.910171103000039, -6.182315044999939, 0.0 ], [ 106.910170466000068, -6.182315045999928, 0.0 ], [ 106.910151347000067, -6.182315048999953, 0.0 ], [ 106.910150710000039, -6.182315049999943, 0.0 ], [ 106.910081108000043, -6.182308587999955, 0.0 ], [ 106.910038077000081, -6.182304594999948, 0.0 ], [ 106.90995332500006, -6.182270719999963, 0.0 ], [ 106.909946393000041, -6.182267948999936, 0.0 ], [ 106.909857331000069, -6.182236540999952, 0.0 ], [ 106.909773507000068, -6.182197278999979, 0.0 ], [ 106.909668723000038, -6.182147543999974, 0.0 ], [ 106.909595377000073, -6.182113514999969, 0.0 ], [ 106.909506311000086, -6.182069013999978, 0.0 ], [ 106.909372713000039, -6.18199571699995, 0.0 ], [ 106.909220778000076, -6.181909331999975, 0.0 ], [ 106.909011211000063, -6.181791532999966, 0.0 ], [ 106.908881401000087, -6.181713822999939, 0.0 ], [ 106.908854266000048, -6.18169758099998, 0.0 ], [ 106.908853802000067, -6.181697301999975, 0.0 ], [ 106.90871575400007, -6.18161465999998, 0.0 ], [ 106.908493921000058, -6.181500021999966, 0.0 ], [ 106.908030371000052, -6.181235271999981, 0.0 ], [ 106.908029770000041, -6.18123492899997, 0.0 ], [ 106.90778408500006, -6.181094608999956, 0.0 ], [ 106.907706261000044, -6.181052569999963, 0.0 ], [ 106.907530705000056, -6.180954038999971, 0.0 ], [ 106.907452945000045, -6.180910395999945, 0.0 ], [ 106.907320737000077, -6.180842059999975, 0.0 ], [ 106.907320447000075, -6.18084190999997, 0.0 ], [ 106.907251683000084, -6.180806367999935, 0.0 ], [ 106.907053894000057, -6.180712744999937, 0.0 ], [ 106.906930627000065, -6.180658318999974, 0.0 ], [ 106.906904682000061, -6.180646864999972, 0.0 ], [ 106.906845187000044, -6.180625396999972, 0.0 ], [ 106.906779765000067, -6.180601791999948, 0.0 ], [ 106.906633125000042, -6.180547598999965, 0.0 ], [ 106.90663255700008, -6.180547388999969, 0.0 ], [ 106.906589164000081, -6.180531352999935, 0.0 ], [ 106.906589030000077, -6.180531302999952, 0.0 ], [ 106.906589143000076, -6.180531106999979, 0.0 ], [ 106.90659031000007, -6.180529081999964, 0.0 ], [ 106.906590334000043, -6.180529037999975, 0.0 ], [ 106.906590416000085, -6.180528878999951, 0.0 ], [ 106.905877052000051, -6.180259657999954, 0.0 ], [ 106.905276902000082, -6.180033162999962, 0.0 ], [ 106.904991079000069, -6.179925293999929, 0.0 ], [ 106.904939728000045, -6.179905519999977, 0.0 ], [ 106.903687566000087, -6.179423327999928, 0.0 ], [ 106.903651221000075, -6.179409332999967, 0.0 ], [ 106.903321577000042, -6.179282390999958, 0.0 ], [ 106.902026042000045, -6.178775694999956, 0.0 ], [ 106.901877138000089, -6.178717225999947, 0.0 ], [ 106.901726499000063, -6.178663382999957, 0.0 ], [ 106.901659905000088, -6.178641875999972, 0.0 ], [ 106.901574273000051, -6.178614219999929, 0.0 ], [ 106.901420603000076, -6.178569782999944, 0.0 ], [ 106.901269168000056, -6.178530960999979, 0.0 ], [ 106.901116632000083, -6.178496727999971, 0.0 ], [ 106.901081172000033, -6.178489887999945, 0.0 ], [ 106.900963132000072, -6.178467113999943, 0.0 ], [ 106.900808811000047, -6.178442148999977, 0.0 ], [ 106.899505723000061, -6.178330186999972, 0.0 ], [ 106.899455451000051, -6.178323243999955, 0.0 ], [ 106.899405845000047, -6.178312529999971, 0.0 ], [ 106.899357187000078, -6.178298101999928, 0.0 ], [ 106.899300130000086, -6.17827587599993, 0.0 ], [ 106.899245328000063, -6.178248547999942, 0.0 ], [ 106.899112634000062, -6.17821141099995, 0.0 ], [ 106.898978653000086, -6.178179228999966, 0.0 ], [ 106.898843572000033, -6.178152046999969, 0.0 ], [ 106.89870757500006, -6.178129901999966, 0.0 ], [ 106.898436361000051, -6.178109503999963, 0.0 ], [ 106.898164855000061, -6.178093460999946, 0.0 ], [ 106.897893126000042, -6.178081775999942, 0.0 ], [ 106.897629739000081, -6.178074680999941, 0.0 ], [ 106.897621246000085, -6.178074452999965, 0.0 ], [ 106.897233693000032, -6.178066944999955, 0.0 ], [ 106.896953840000037, -6.178061523999929, 0.0 ], [ 106.896870467000042, -6.178065576999927, 0.0 ], [ 106.896787051000047, -6.178062534999981, 0.0 ], [ 106.896704194000051, -6.178052421999951, 0.0 ], [ 106.896622493000052, -6.178035307999949, 0.0 ], [ 106.896542537000073, -6.17801131899995, 0.0 ], [ 106.896466500000088, -6.177977984999927, 0.0 ], [ 106.896393192000062, -6.177939004999928, 0.0 ], [ 106.896323031000065, -6.17789460299997, 0.0 ], [ 106.896256418000064, -6.177845028999968, 0.0 ], [ 106.89619373000005, -6.177790566999931, 0.0 ], [ 106.896127943000067, -6.177731138999945, 0.0 ], [ 106.895822625000051, -6.177445417999934, 0.0 ], [ 106.895772606000037, -6.177401429999975, 0.0 ], [ 106.895506217000047, -6.177159940999957, 0.0 ], [ 106.895015228000034, -6.176713320999966, 0.0 ], [ 106.894566739000084, -6.176317862999952, 0.0 ], [ 106.894458445000055, -6.17618029099998, 0.0 ], [ 106.894364278000069, -6.17609913299998, 0.0 ], [ 106.894362929000067, -6.176097970999933, 0.0 ], [ 106.894360737000056, -6.176096081999958, 0.0 ], [ 106.894321904000037, -6.176062613999932, 0.0 ], [ 106.894310654000037, -6.176052916999936, 0.0 ], [ 106.893688575000056, -6.175516777999974, 0.0 ], [ 106.893292652000071, -6.175132020999968, 0.0 ], [ 106.893260105000081, -6.175187978999929, 0.0 ], [ 106.893258366000055, -6.175190966999935, 0.0 ], [ 106.893254017000061, -6.175198444999978, 0.0 ], [ 106.892939266000042, -6.174890460999961, 0.0 ], [ 106.892735535000043, -6.174699245999932, 0.0 ], [ 106.89261704200004, -6.174587011999961, 0.0 ], [ 106.892475679000086, -6.174468545999957, 0.0 ], [ 106.892323924000038, -6.174345921999929, 0.0 ], [ 106.892169734000049, -6.174219794999942, 0.0 ], [ 106.892163853000056, -6.174214982999956, 0.0 ], [ 106.892014177000078, -6.17408196699995, 0.0 ], [ 106.891885286000047, -6.173967654999956, 0.0 ], [ 106.891737684000077, -6.173803454999927, 0.0 ], [ 106.891683003000082, -6.17373803199996, 0.0 ], [ 106.891610869000033, -6.173651726999935, 0.0 ], [ 106.89149653000004, -6.173524942999961, 0.0 ], [ 106.891392587000041, -6.173427256999958, 0.0 ], [ 106.891288646000078, -6.173337885999956, 0.0 ], [ 106.891165994000062, -6.173242279999954, 0.0 ], [ 106.891003849000072, -6.173132129999942, 0.0 ], [ 106.890795972000035, -6.173009512999954, 0.0 ], [ 106.890642142000047, -6.172913910999966, 0.0 ], [ 106.890305380000086, -6.172716474999959, 0.0 ], [ 106.889885471000071, -6.17246292699997, 0.0 ], [ 106.889261115000068, -6.172096545999977, 0.0 ], [ 106.889220356000067, -6.172072625999931, 0.0 ], [ 106.889216108000085, -6.172070134999956, 0.0 ], [ 106.888923, -6.171887243999947, 0.0 ], [ 106.88846359300004, -6.171612910999954, 0.0 ], [ 106.888027054000077, -6.171351046999973, 0.0 ], [ 106.887484498000049, -6.171030990999952, 0.0 ], [ 106.887441873000057, -6.171004273999927, 0.0 ], [ 106.887393843000041, -6.170974168999976, 0.0 ], [ 106.886542819000056, -6.170440751999934, 0.0 ], [ 106.886220611000056, -6.17024539099998, 0.0 ], [ 106.885848515000077, -6.170016775999954, 0.0 ], [ 106.885658262000049, -6.169897684999967, 0.0 ], [ 106.885609457000044, -6.169867136999926, 0.0 ], [ 106.885278935000088, -6.169661382999948, 0.0 ], [ 106.884910997000077, -6.169439003999969, 0.0 ], [ 106.88459294900008, -6.169239484999935, 0.0 ], [ 106.884252033000053, -6.169027495999956, 0.0 ], [ 106.883933985000056, -6.168830052999965, 0.0 ], [ 106.88391437100006, -6.168817436999973, 0.0 ], [ 106.883814199000085, -6.168752997999945, 0.0 ], [ 106.883665825000037, -6.168657552999946, 0.0 ], [ 106.883291652000082, -6.168424778999963, 0.0 ], [ 106.883263766000084, -6.168407763999937, 0.0 ], [ 106.882949963000044, -6.168216308999945, 0.0 ], [ 106.882763651000062, -6.168102638999926, 0.0 ], [ 106.882349981000061, -6.167842847999964, 0.0 ], [ 106.882117163000032, -6.167695282999944, 0.0 ], [ 106.882033924000041, -6.16764870399993, 0.0 ], [ 106.88183861400006, -6.167539409999961, 0.0 ], [ 106.881665544000043, -6.167440004999946, 0.0 ], [ 106.881372658000032, -6.167271784999969, 0.0 ], [ 106.881350114000043, -6.167258837999952, 0.0 ], [ 106.881323659000088, -6.167245, 0.0 ], [ 106.881087855000033, -6.167121656999939, 0.0 ], [ 106.881085670000061, -6.167120512999929, 0.0 ], [ 106.88104878300004, -6.16710121999995, 0.0 ], [ 106.881036227000038, -6.167094653999925, 0.0 ], [ 106.880693576000056, -6.166919457999938, 0.0 ], [ 106.880669154000088, -6.166906969999957, 0.0 ], [ 106.880398066000055, -6.166768365999928, 0.0 ], [ 106.880298287000073, -6.166716406999967, 0.0 ], [ 106.880221375000076, -6.166678998999942, 0.0 ], [ 106.880117442000085, -6.166647828999942, 0.0 ], [ 106.880034294000041, -6.166622892999953, 0.0 ], [ 106.879926204000071, -6.166591722999954, 0.0 ], [ 106.87983474300006, -6.166573022999955, 0.0 ], [ 106.879701711000052, -6.166546012999959, 0.0 ], [ 106.879481376000058, -6.166510696999978, 0.0 ], [ 106.879148795000049, -6.166458761999934, 0.0 ], [ 106.878903404000084, -6.166419499999961, 0.0 ], [ 106.87921089300005, -6.165907925999932, 0.0 ], [ 106.879247183000075, -6.165847546999942, 0.0 ], [ 106.879661322000061, -6.165205047999962, 0.0 ], [ 106.880071873000077, -6.164566134999973, 0.0 ], [ 106.880318019000072, -6.16418940899996, 0.0 ], [ 106.880475255000079, -6.163948760999972, 0.0 ], [ 106.880882219000057, -6.163320613999929, 0.0 ], [ 106.880913360000079, -6.163273057999959, 0.0 ], [ 106.881267671000046, -6.162731951999945, 0.0 ], [ 106.881402542000046, -6.16251953099993, 0.0 ], [ 106.88147332300008, -6.16250000499997, 0.0 ], [ 106.881591824000054, -6.162322474999939, 0.0 ], [ 106.881756323000047, -6.162070236999966, 0.0 ], [ 106.881942992000063, -6.161780933999978, 0.0 ], [ 106.882076398000038, -6.161567726999976, 0.0 ], [ 106.882444189000068, -6.160964859999979, 0.0 ], [ 106.882594857000072, -6.16071563099996, 0.0 ], [ 106.882737811000084, -6.160479162999934, 0.0 ], [ 106.882922576000055, -6.160175018999951, 0.0 ], [ 106.883208009000043, -6.159700391999934, 0.0 ], [ 106.883210150000082, -6.159696650999933, 0.0 ], [ 106.883471898000039, -6.159239369999966, 0.0 ], [ 106.88370659900005, -6.158852133999972, 0.0 ], [ 106.883927535000055, -6.158488887999965, 0.0 ], [ 106.883937659000082, -6.158473453999932, 0.0 ], [ 106.883961962000058, -6.158436404999975, 0.0 ], [ 106.884088557000041, -6.15824341299998, 0.0 ], [ 106.884204876000069, -6.158042759999944, 0.0 ], [ 106.884473829000058, -6.15759363799998, 0.0 ], [ 106.88468264100004, -6.157248172999971, 0.0 ], [ 106.884835322000072, -6.156995571999971, 0.0 ], [ 106.885013120000053, -6.156705053999929, 0.0 ], [ 106.88520834500008, -6.156382538999935, 0.0 ], [ 106.885372435000079, -6.156096357999957, 0.0 ], [ 106.885526592000076, -6.15582977899993, 0.0 ], [ 106.885537896000073, -6.155810230999975, 0.0 ], [ 106.885579667000059, -6.15573799799995, 0.0 ], [ 106.885780053000076, -6.155403772999932, 0.0 ], [ 106.885781288000032, -6.155401710999968, 0.0 ], [ 106.885924223000075, -6.155163285999947, 0.0 ], [ 106.886222597000085, -6.154667224999969, 0.0 ], [ 106.886362167000073, -6.154435651999961, 0.0 ], [ 106.886455484000066, -6.154280839999956, 0.0 ], [ 106.88650896300004, -6.154192010999964, 0.0 ], [ 106.886524849000068, -6.154166673999953, 0.0 ], [ 106.886639866000053, -6.153973802999928, 0.0 ], [ 106.886780499000054, -6.153739117999976, 0.0 ], [ 106.886918756000057, -6.153509576999966, 0.0 ], [ 106.887111163000043, -6.15319188899997, 0.0 ], [ 106.887309521000077, -6.152863059999959, 0.0 ], [ 106.887440205000075, -6.152644872999929, 0.0 ], [ 106.887531741000032, -6.152491993999945, 0.0 ], [ 106.887576162000073, -6.152421853999954, 0.0 ], [ 106.887608701000033, -6.152370474999941, 0.0 ], [ 106.887799838000035, -6.152081058999954, 0.0 ], [ 106.887881223000079, -6.15195255499998, 0.0 ], [ 106.888060569000061, -6.151657467999939, 0.0 ], [ 106.888123635000056, -6.151503970999954, 0.0 ], [ 106.888239579000071, -6.151307664999933, 0.0 ], [ 106.888347557000088, -6.151120006999975, 0.0 ], [ 106.888446379000072, -6.150942847999943, 0.0 ], [ 106.888534006000043, -6.150761684999964, 0.0 ], [ 106.888536707000071, -6.150755825999966, 0.0 ], [ 106.88854116300007, -6.150746160999972, 0.0 ], [ 106.888586682000039, -6.150647412999945, 0.0 ], [ 106.888587650000034, -6.150645311999938, 0.0 ], [ 106.888591072000054, -6.150637889999928, 0.0 ], [ 106.888598667000053, -6.150621415999979, 0.0 ], [ 106.888678264000077, -6.15044876199994, 0.0 ], [ 106.888700722000067, -6.150398591999931, 0.0 ], [ 106.888706682000077, -6.150385277999931, 0.0 ], [ 106.88884575700007, -6.150074604999929, 0.0 ], [ 106.888878798000064, -6.150000002999946, 0.0 ], [ 106.888894071000038, -6.149962043999949, 0.0 ], [ 106.888927506000073, -6.149882783999942, 0.0 ], [ 106.888988643000062, -6.14973785899997, 0.0 ], [ 106.889079004000052, -6.149523520999935, 0.0 ], [ 106.889107280000076, -6.149456450999935, 0.0 ], [ 106.88929255100004, -6.14901942399996, 0.0 ], [ 106.889301074000059, -6.148999319999973, 0.0 ], [ 106.889308417000052, -6.148982, 0.0 ], [ 106.889387342000077, -6.148782886999925, 0.0 ], [ 106.889432543000055, -6.148666003999949, 0.0 ], [ 106.889460299000064, -6.148594229999958, 0.0 ], [ 106.889504354000053, -6.148481315999959, 0.0 ], [ 106.889527884000074, -6.148418138999943, 0.0 ], [ 106.889558439000041, -6.148331624999969, 0.0 ], [ 106.88960574500004, -6.148193995999975, 0.0 ], [ 106.889650490000065, -6.14806161599995, 0.0 ], [ 106.889676542000075, -6.147971262999931, 0.0 ], [ 106.889697973000068, -6.147896996999975, 0.0 ], [ 106.889702997000086, -6.147879079999939, 0.0 ], [ 106.889725134000059, -6.147800133999965, 0.0 ], [ 106.889781049000078, -6.147586484999977, 0.0 ], [ 106.889834647000043, -6.147381689999975, 0.0 ], [ 106.889901418000079, -6.147097498999926, 0.0 ], [ 106.889982276000069, -6.146757329999957, 0.0 ], [ 106.890060033000054, -6.146430565999935, 0.0 ], [ 106.890118904000076, -6.146183166999947, 0.0 ], [ 106.890171947000056, -6.145954907999965, 0.0 ], [ 106.890182610000068, -6.145909021999955, 0.0 ], [ 106.890296768000042, -6.145437646999937, 0.0 ], [ 106.890358415000037, -6.145152279999934, 0.0 ], [ 106.890377896000075, -6.145076232999941, 0.0 ], [ 106.890458654000042, -6.144762367999931, 0.0 ], [ 106.890494783000065, -6.144613789999937, 0.0 ], [ 106.890521500000034, -6.144503679999957, 0.0 ], [ 106.890573995000068, -6.14425315099993, 0.0 ], [ 106.890603866000049, -6.14408713499995, 0.0 ], [ 106.890662945000088, -6.14379049799993, 0.0 ], [ 106.890696211000034, -6.143627803999948, 0.0 ], [ 106.890714369000079, -6.143543460999979, 0.0 ], [ 106.890717573000074, -6.143528574999948, 0.0 ], [ 106.890770485000075, -6.143283703999941, 0.0 ], [ 106.890835392000042, -6.142994059999978, 0.0 ], [ 106.890834087000087, -6.14284022399994, 0.0 ], [ 106.890910429000087, -6.142506736999962, 0.0 ], [ 106.890918114000044, -6.14247316999996, 0.0 ], [ 106.890867866000065, -6.142462991999935, 0.0 ], [ 106.890935264000063, -6.14217932899993, 0.0 ], [ 106.891055335000033, -6.141666061999956, 0.0 ], [ 106.891182571000058, -6.141113316999963, 0.0 ], [ 106.891299056000037, -6.140610817999971, 0.0 ], [ 106.891411959000038, -6.14012985599993, 0.0 ], [ 106.891532028000086, -6.139616590999935, 0.0 ], [ 106.891673601000036, -6.139006414999926, 0.0 ], [ 106.891748871000061, -6.138704914999948, 0.0 ], [ 106.891861775000052, -6.138249077999944, 0.0 ], [ 106.89195698900005, -6.137859145999926, 0.0 ], [ 106.892179094000085, -6.137926452999977, 0.0 ], [ 106.892297188000043, -6.13795903099998, 0.0 ], [ 106.892322706000073, -6.137966070999937, 0.0 ], [ 106.892323304000058, -6.137966235999954, 0.0 ], [ 106.892325420000077, -6.137966819999974, 0.0 ], [ 106.892327024000053, -6.137967261999961, 0.0 ], [ 106.892422626000041, -6.137993635999976, 0.0 ], [ 106.89244682900005, -6.138000312999964, 0.0 ], [ 106.892448481000088, -6.137993351999967, 0.0 ], [ 106.892469128000073, -6.137906362999956, 0.0 ], [ 106.892490215000066, -6.137825090999968, 0.0 ], [ 106.89251130100007, -6.137743818999979, 0.0 ], [ 106.892532387000074, -6.137662546999934, 0.0 ], [ 106.892553473000078, -6.137581274999945, 0.0 ], [ 106.892574559000082, -6.137500002999957, 0.0 ], [ 106.892587461000062, -6.137443366999946, 0.0 ], [ 106.89259449900004, -6.137412469999958, 0.0 ], [ 106.892614439000056, -6.13732493599997, 0.0 ], [ 106.892634379000071, -6.137237402999972, 0.0 ], [ 106.892654320000076, -6.137149869999973, 0.0 ], [ 106.892674260000035, -6.137062335999929, 0.0 ], [ 106.892694639000069, -6.136974334999934, 0.0 ], [ 106.892710577000059, -6.136905513999977, 0.0 ], [ 106.892710911000052, -6.136904073999972, 0.0 ], [ 106.892728999000042, -6.13691029599994, 0.0 ], [ 106.893047296000077, -6.136992986999928, 0.0 ], [ 106.893964564000044, -6.137218920999942, 0.0 ], [ 106.895569342000044, -6.137607583999966, 0.0 ] ], [ [ 106.906780402000038, -6.180601788999979, 0.0 ], [ 106.906845825000062, -6.180625394999936, 0.0 ], [ 106.90680414600007, -6.180609538999931, 0.0 ], [ 106.906634171000064, -6.180545391999942, 0.0 ], [ 106.906590948000087, -6.180529079999928, 0.0 ], [ 106.906589668000038, -6.180531300999974, 0.0 ], [ 106.906589802000042, -6.180531349999967, 0.0 ], [ 106.90663319500004, -6.180547386999933, 0.0 ], [ 106.906780402000038, -6.180601788999979, 0.0 ] ] ] ] } }
]
}
